"id","hotel_name","continent","country","city","address","services","eco_mark"
"1","Anantara Sahara Tozeur Resort & Villas","Afrique","Tunisie","Tozeur"," Mrah Lahwar 2200 Tozeur Tunisie","Wi-Fi gratuit|Occasions spéciales|Réunions|93 Chambres|Parking|Centre sportif|Piscine|Spa|Climatisation - Contrôle de la climatisation|Accessibilité","False"
"2","NH Bariloche Edelweiss","Amérique","Argentine","Bariloche"," San Martin 202,  8400 Bariloche Argentine","Wi-Fi gratuit|Parking|Centre sportif|Piscine|100%|Eco-friendly|Animaux|Accessibilité|Réunions|95 Chambres","True"
"3","NH Buenos Aires 9 de Julio","Amérique","Argentine","Buenos Aires"," Av. Cerrito 154-156, C1010AAD Buenos Aires Argentine","Wi-Fi gratuit|Parking|Centre sportif|Navette|Piscine|100%|Climatisation - Contrôle de la climatisation|Eco-friendly|Animaux|Accessibilité|Occasions spéciales|Réunions|175 Chambres","True"
"4","NH Buenos Aires City","Amérique","Argentine","Buenos Aires"," Bolivar, 160, C1066AAD Buenos Aires Argentine","Wi-Fi gratuit|Parking|Centre sportif|Piscine|100%|Climatisation - Contrôle de la climatisation|Animaux|Accessibilité|Occasions spéciales|Réunions|302 Chambres","False"
"5","NH Buenos Aires Florida","Amérique","Argentine","Buenos Aires"," San Martin, 839, C1004AAQ Buenos Aires Argentine","Wi-Fi gratuit|Parking|100%|Centre sportif|Climatisation - Contrôle de la climatisation|Animaux|Accessibilité|162 Chambres","False"
"6","NH Buenos Aires Latino","Amérique","Argentine","Buenos Aires"," Suipacha, 309, C1008AAG Buenos Aires Argentine","Wi-Fi gratuit|Centre sportif|100%|Climatisation - Contrôle de la climatisation|Animaux|Occasions spéciales|Réunions|100 Chambres","False"
"7","NH Buenos Aires Tango","Amérique","Argentine","Buenos Aires"," Cerrito 550, C1010AAL Buenos Aires Argentine","Wi-Fi gratuit|Parking|Centre sportif|100%|Climatisation - Contrôle de la climatisation|Eco-friendly|Animaux|Occasions spéciales|Réunions|108 Chambres|Accessibilité","True"
"8","NH Collection Buenos Aires Centro Histórico","Amérique","Argentine","Buenos Aires"," Bolivar, 120, C1066AAD Buenos Aires Argentine","Wi-Fi gratuit|Parking|Centre sportif|Navette|Piscine|100%|Climatisation - Contrôle de la climatisation|Animaux|Accessibilité|67 Chambres","False"
"9","NH Collection Buenos Aires Crillon","Amérique","Argentine","Buenos Aires"," Avda. Santa Fe 796, C1059ABO Buenos Aires Argentine","Wi-Fi gratuit|100%|Climatisation - Contrôle de la climatisation|Animaux|Accessibilité|Navette|Occasions spéciales|Réunions|96 Chambres","False"
"10","NH Collection Buenos Aires Jousten","Amérique","Argentine","Buenos Aires"," Avda. Corrientes, 280, C1043AAP Buenos Aires Argentine","Wi-Fi gratuit|Centre sportif|100%|Navette|Climatisation - Contrôle de la climatisation|Eco-friendly|Animaux|Accessibilité|84 Chambres","True"
"11","NH Collection Buenos Aires Lancaster","Amérique","Argentine","Buenos Aires"," Av. Cordoba 405, C1054AAD Buenos Aires Argentine","Wi-Fi gratuit|Centre sportif|100%|Climatisation - Contrôle de la climatisation|Eco-friendly|Animaux|Accessibilité|Occasions spéciales|Réunions|115 Chambres","True"
"12","NH Córdoba Panorama","Amérique","Argentine","Cordoba"," Marcelo T. de Alvear (La Cañada) 251, X5000KGE Cordoba Argentine","Wi-Fi gratuit|Centre sportif|Piscine|100%|Climatisation - Contrôle de la climatisation|Eco-friendly|Animaux|Occasions spéciales|Réunions|138 Chambres","True"
"13","NH Córdoba Urbano","Amérique","Argentine","Cordoba"," Marcelo T.de Alvear (La Cañada), 363, X5000KGF Cordoba Argentine","Wi-Fi gratuit|Parking|Piscine|100%|Climatisation - Contrôle de la climatisation|Animaux|Occasions spéciales|Réunions|72 Chambres","False"
"14","NH Gran Hotel Provincial","Amérique","Argentine","Mar del Plata"," Av Patricio Peralta Ramos 2502, B7600JUZ Mar del Plata Argentine","Wi-Fi gratuit|Parking|Centre sportif|Piscine|Spa|100%|Climatisation - Contrôle de la climatisation|Animaux|Accessibilité|Baby-sitter|Occasions spéciales|Réunions|460 Chambres","False"
"15","NH Hotel Casino","Amérique","Argentine","Mar del Plata"," Blvd Patricio Peralta Ramos 2300, 7600 Mar del Plata Argentine","Wi-Fi gratuit|Parking|100%|Climatisation - Contrôle de la climatisation|Animaux|Accessibilité|65 Chambres","False"
"16","NH Mendoza Cordillera","Amérique","Argentine","Mendoza"," Avda.España, 1324, M5500DWN Mendoza Argentine","Wi-Fi gratuit|Parking|Centre sportif|Navette|Piscine|100%|Climatisation - Contrôle de la climatisation|Animaux|Accessibilité|Baby-sitter|Occasions spéciales|Réunions|105 Chambres","False"
"17","NH Curitiba The Five","Amérique","Brésil","Curitiba"," Rua Nunes Machado, 68 Curitiba, 80250-000 Curitiba Brésil","Wi-Fi gratuit|Parking|Centre sportif|Spa|Climatisation - Contrôle de la climatisation|Animaux|Accessibilité|Occasions spéciales|Réunions|180 Chambres","False"
"18","NH Antofagasta","Amérique","Chili","Antofagasta"," Avenida Ejercito 01151, 1240000 Antofagasta Chili","Wi-Fi gratuit|Parking|Centre sportif|Navette|Piscine|100%|Climatisation - Contrôle de la climatisation|Animaux|Accessibilité|Occasions spéciales|Réunions|139 Chambres","False"
"19","NH Iquique","Amérique","Chili","Iquique"," Avenida Arturo Prat 3939, 1111500 Iquique Chili","Wi-Fi gratuit|Parking|Piscine|100%|Climatisation - Contrôle de la climatisation|Animaux|Accessibilité|Occasions spéciales|Réunions|78 Chambres","False"
"20","NH Ciudad de Santiago","Amérique","Chili","Santiago"," Avda. Condell, 40, 11100 Santiago Chili","Wi-Fi gratuit|Centre sportif|Navette|100%|Climatisation - Contrôle de la climatisation|Animaux|Accessibilité|Occasions spéciales|Réunions|122 Chambres","False"
"21","NH Collection Plaza Santiago","Amérique","Chili","Santiago"," Avenida Vitacura 2610, Las Condes, 7550098 Santiago Chili","Wi-Fi gratuit|Parking|Centre sportif|Navette|Piscine|100%|Climatisation - Contrôle de la climatisation|Animaux|Accessibilité|Occasions spéciales|Réunions|159 Chambres","False"
"22","NH Collection Santiago Casacostanera","Amérique","Chili","Santiago"," Nueva Costanera 3900, Vitacura, Región Metropolitana, 7630312 Santiago Chili","Wi-Fi gratuit|Parking|100%|Navette|Climatisation - Contrôle de la climatisation|Animaux|Accessibilité|Réunions|85 Chambres","False"
"23","NH Collection Barranquilla Smartsuites Royal","Amérique","Colombie","Barranquilla","  Calle 80 No. 51 B - 25,  Barranquilla Colombie","Wi-Fi gratuit|Parking|Piscine|Navette|100%|Climatisation - Contrôle de la climatisation|Animaux|Accessibilité|Réunions|118 Chambres","False"
"24","NH Bogotá Boheme Royal","Amérique","Colombie","Bogotá"," Calle 82 No. 12-35, Chico, 110010  Bogotá Colombie","Wi-Fi gratuit|Parking|Climatisation - Contrôle de la climatisation|Eco-friendly|Animaux|Navette|Occasions spéciales|Réunions|66 Chambres","True"
"25","NH Bogotá Pavillon Royal","Amérique","Colombie","Bogotá","  Calle 94 # 11-45,  Bogotá Colombie","Wi-Fi gratuit|Parking|Centre sportif|100%|Animaux|Occasions spéciales|Réunions|72 Chambres","False"
"26","NH Bogotá Urban 26 Royal","Amérique","Colombie","Bogotá"," Carrera 33 Número 25F-18, 110001 Bogotá Colombie","Wi-Fi gratuit|Spa|100%|Animaux|Navette|Occasions spéciales|Réunions|118 Chambres","False"
"27","NH Bogotá Urban 93 Royal","Amérique","Colombie","Bogotá","  Calle 93B No 18 42,  Bogotá Colombie","Wi-Fi gratuit|Parking|100%|Climatisation - Contrôle de la climatisation|Animaux|Occasions spéciales|Réunions|54 Chambres","False"
"28","NH Collection Bogotá Andino Royal","Amérique","Colombie","Bogotá"," Calle 85 No 12-28,  Bogotá Colombie","Wi-Fi gratuit|Parking|Centre sportif|Navette|100%|Climatisation - Contrôle de la climatisation|Eco-friendly|Animaux|Accessibilité|Occasions spéciales|Réunions","True"
"29","NH Collection Bogotá Hacienda Royal","Amérique","Colombie","Bogotá"," Calle 114 N 6-02,  Bogotá Colombie","Wi-Fi gratuit|Parking|Centre sportif|100%|Climatisation - Contrôle de la climatisation|Eco-friendly|Animaux|Réunions|82 Chambres","True"
"30","NH Collection Bogotá Teleport Royal","Amérique","Colombie","Bogotá","  Calle 113 Number 7-65,  Bogotá Colombie","Wi-Fi gratuit|Parking|Piscine|Navette|100%|Climatisation - Contrôle de la climatisation|Eco-friendly|Animaux|Occasions spéciales|Réunions|251 Chambres","True"
"31","NH Collection Bogotá Terra 100 Royal","Amérique","Colombie","Bogotá"," Calle 100 No. 19A-70, 110111 Bogotá Colombie","Wi-Fi gratuit|Parking|100%|Navette|Climatisation - Contrôle de la climatisation|Eco-friendly|Animaux|Accessibilité|Occasions spéciales|73 Chambres","True"
"32","NH Collection Bogotá WTC Royal","Amérique","Colombie","Bogotá"," Carrera 8A N 99-55, World Trade Center,  Bogotá Colombie","Wi-Fi gratuit|Parking|100%|Climatisation - Contrôle de la climatisation|Eco-friendly|Animaux|Accessibilité|Occasions spéciales|Réunions|144 Chambres","True"
"33","NH Cali Royal","Amérique","Colombie","Cali","  Carrera 100B No. 11A - 99,  Cali Colombie","Wi-Fi gratuit|Parking|Centre sportif|Navette|Piscine|Spa|100%|Climatisation - Contrôle de la climatisation|Animaux|Accessibilité|Baby-sitter|Occasions spéciales|Réunions|145 Chambres","False"
"34","NH Cartagena Urban Royal","Amérique","Colombie","Carthagène des Indes"," Plaza de los Coches Cr 7 34 10,  Carthagène des Indes Colombie","Wi-Fi gratuit|Piscine|100%|Climatisation - Contrôle de la climatisation|Animaux|Navette|Occasions spéciales|Réunions|28 Chambres","False"
"35","NH Collection Medellín Royal","Amérique","Colombie","Medellín"," Carrera 42 No 5 Sur 130,  Medellín Colombie","Wi-Fi gratuit|Parking|Centre sportif|Navette|Piscine|Spa|100%|Climatisation - Contrôle de la climatisation|Animaux|Accessibilité|Occasions spéciales|Réunions","False"
"36","NH Capri La Habana","Amérique","Cuba","La Havane"," Calle 21 entre calle N y O,  La Havane Cuba","Parking|Centre sportif|Piscine|100%|Climatisation - Contrôle de la climatisation|Animaux|Accessibilité|220 Chambres","False"
"37","NH Collection Victoria La Habana","Amérique","Cuba","La Havane"," Calle 19 entre calle L y M,  La Havane Cuba","Parking|Piscine|100%|Climatisation - Contrôle de la climatisation|Animaux|Occasions spéciales|31 Chambres","False"
"38","NH Collection Quito Royal","Amérique","Équateur","Quito"," Cordero 444 - Avenida 12 de Octubre,  Quito Équateur","Wi-Fi gratuit|Parking|Centre sportif|Navette|Spa|100%|Climatisation - Contrôle de la climatisation|Animaux|Accessibilité|Occasions spéciales|Réunions|124 Chambres","False"
"39","NH Collection New York Madison Avenue","Amérique","États-Unis","New York"," 22 East 38th Street, 10016 New York États-Unis","Wi-Fi gratuit|Centre sportif|Parking|100%|Climatisation - Contrôle de la climatisation|Animaux|Accessibilité|Réunions|288 Chambres","False"
"40","NH Haiti El Rancho","Amérique","Haïti","Port au Prince"," 5 Rue Jose Martin, 6140 HT Petionville Port au Prince Haïti","Wi-Fi gratuit|Parking|Centre sportif|Piscine|100%|Climatisation - Contrôle de la climatisation|Animaux|Accessibilité|Baby-sitter|Occasions spéciales|Réunions|72 Chambres","False"
"41","NH Cancún Airport","Amérique","Mexique","Cancún"," Carr. Fed Cancún - Puerto Morelos, SM 47 M01 L 1- 22 77506 Cancún Mexique","Wi-Fi gratuit|Parking|Centre sportif|Piscine|100%|Climatisation - Contrôle de la climatisation|Animaux|Accessibilité|Navette|Occasions spéciales|Réunions|140 Chambres","False"
"42","NH Coatzacoalcos","Amérique","Mexique","Coatzacoalcos"," Avda. de las Palmas, 2, 96558 Coatzacoalcos Mexique","Wi-Fi gratuit|Parking|Centre sportif|100%|Climatisation - Contrôle de la climatisation|Animaux|Navette|Occasions spéciales|Réunions|104 Chambres","False"
"43","NH Collection Guadalajara Providencia","Amérique","Mexique","Guadalajara"," Sao Paulo 2334, Col. Providencia, 44630 Jalisco Guadalajara Mexique","Wi-Fi gratuit|Centre sportif|100%|Climatisation - Contrôle de la climatisation|Eco-friendly|Animaux|Accessibilité|Occasions spéciales|Réunions|137 Chambres","True"
"44","NH Collection León Expo","Amérique","Mexique","León"," Prol. Boulevard Adolfo López Mateos no. 2303, 37270  León Mexique","Wi-Fi gratuit|Parking|Centre sportif|Piscine|100%|Animaux|Accessibilité|Occasions spéciales|Réunions|141 Chambres","False"
"45","NH Collection Mérida Paseo Montejo","Amérique","Mexique","Mérida"," Calle 60 #346, 97000 Mérida Mexique","Parking|Centre sportif|Piscine|100%|Animaux|Accessibilité|Occasions spéciales|Réunions|120 Chambres","False"
"46","NH Collection Mexico City Airport T2","Amérique","Mexique","Mexico"," Capitán Carlos León González s/n,  Mexico Mexique","Wi-Fi gratuit|Parking|Centre sportif|Navette|100%|Climatisation - Contrôle de la climatisation|Animaux|Accessibilité|Occasions spéciales|Réunions|287 Chambres","False"
"47","NH Collection Mexico City Centro Histórico","Amérique","Mexique","Mexico"," Palma 42, Centro, 06000 Mexico Mexique","Wi-Fi gratuit|Centre sportif|100%|Climatisation - Contrôle de la climatisation|Eco-friendly|Animaux|Accessibilité|Occasions spéciales|Réunions|105 Chambres","True"
"48","NH Collection Mexico City Reforma","Amérique","Mexique","Mexico"," Liverpool, 155; Zona Rosa, 06600 Mexico Mexique","Wi-Fi gratuit|Parking|Centre sportif|Piscine|100%|Climatisation - Contrôle de la climatisation|Animaux|Accessibilité|Occasions spéciales|Réunions|306 Chambres","False"
"49","NH Collection Mexico City Santa Fe","Amérique","Mexique","Mexico"," Juan Salvador Agraz, 44, 05109 Mexico Mexique","Wi-Fi gratuit|Parking|Centre sportif|100%|Climatisation - Contrôle de la climatisation|Animaux|Accessibilité|Occasions spéciales|Réunions|135 Chambres","False"
"50","NH Mexico City Valle Dorado","Amérique","Mexique","Mexico"," Periférico Boulevard Manuel Ávila Camacho 3130, Valle Dorado, 54020 Tlalnepantla Mexico Mexique","Wi-Fi gratuit|Parking|Centre sportif|100%|Climatisation - Contrôle de la climatisation|Animaux|Accessibilité|Navette|Occasions spéciales|Réunions|130 Chambres","False"
"51","NH Collection Monterrey San Pedro","Amérique","Mexique","Monterrey"," Av Jose Vasconcelos 402, 66268 Monterrey Mexique","Wi-Fi gratuit|Parking|Centre sportif|100%|Climatisation - Contrôle de la climatisation|Animaux|Accessibilité|Baby-sitter|Occasions spéciales|Réunions|217 Chambres","False"
"52","NH Monterrey La Fe","Amérique","Mexique","Monterrey"," Av. Miguel Alemán #200, Col. Talaverna, 66470 San Nicolás Monterrey Mexique","Wi-Fi gratuit|Parking|Centre sportif|100%|Animaux|Accessibilité|Baby-sitter|Navette|Occasions spéciales|Réunions|152 Chambres","False"
"53","NH Puebla Centro Histórico","Amérique","Mexique","Puebla"," Calle 5 Sur 105 Centro Historico, 72000 Puebla Mexique","Wi-Fi gratuit|Parking|100%|Climatisation - Contrôle de la climatisation|Animaux|Accessibilité|Occasions spéciales|Réunions|180 Chambres","False"
"54","NH Puebla Finsa","Amérique","Mexique","Puebla"," Av. Moratilla 132-1, 72110 Puebla Mexique","Wi-Fi gratuit|Parking|Centre sportif|Piscine|100%|Climatisation - Contrôle de la climatisation|Animaux|Accessibilité|Réunions|138 Chambres","False"
"55","NH Queretaro","Amérique","Mexique","Queretaro"," Av 5 de Febrero #1303, 76138 Queretaro Mexique","Wi-Fi gratuit|Parking|Centre sportif|100%|Climatisation - Contrôle de la climatisation|Animaux|Accessibilité|Occasions spéciales|Réunions|140 Chambres","False"
"56","NH San Luis Potosí","Amérique","Mexique","San Luis Potosí"," Av. Venustiano Carranza No. 1460, 78250 San Luis Potosí Mexique","Wi-Fi gratuit|Centre sportif|100%|Animaux|Accessibilité|Navette|Occasions spéciales|Réunions|111 Chambres","False"
"57","NH Montevideo Columbia","Amérique","Uruguay","Montevideo"," Rambla Gran Bretaña, 473, 11000 Montevideo Uruguay","Wi-Fi gratuit|Parking|Centre sportif|100%|Climatisation - Contrôle de la climatisation|Animaux|Accessibilité|Occasions spéciales|Réunions|136 Chambres","False"
"58","NH Berlin Alexanderplatz","Europe","Allemagne","Berlin"," Landsberger Allee 26, 10249 Berlin Allemagne","Wi-Fi gratuit|Parking|Climatisation - Contrôle de la climatisation|Eco-friendly|Animaux|Occasions spéciales|Réunions|225 Chambres","True"
"59","NH Berlin City Ost","Europe","Allemagne","Berlin"," Rathausstr. 2-3, 10367 Berlin-Lichtenberg Berlin Allemagne","Wi-Fi gratuit|Parking|Climatisation - Contrôle de la climatisation|Animaux|Occasions spéciales|Réunions|99 Chambres","False"
"60","NH Berlin Kurfürstendamm","Europe","Allemagne","Berlin"," Grolmanstr. 41-43, 10623 Berlin Allemagne","Wi-Fi gratuit|Parking|Centre sportif|100%|Climatisation - Contrôle de la climatisation|Eco-friendly|Animaux|Occasions spéciales|Réunions|167 Chambres","True"
"61","NH Berlin Potsdamer Platz","Europe","Allemagne","Berlin"," Stresemannstr. 47, 10963 Berlin Allemagne","Wi-Fi gratuit|Parking|100%|Climatisation - Contrôle de la climatisation|Eco-friendly|Animaux|Accessibilité|89 Chambres","True"
"62","NH Collection Berlin Mitte Friedrichstrasse","Europe","Allemagne","Berlin"," Friedrichstr. 96, 10117 Berlin Allemagne","Wi-Fi gratuit|Parking|Centre sportif|Spa|100%|Climatisation - Contrôle de la climatisation|Eco-friendly|Animaux|Accessibilité|Baby-sitter|Occasions spéciales|Réunions|268 Chambres","True"
"63","NH Collection Berlin Mitte am Checkpoint Charlie","Europe","Allemagne","Berlin"," Leipziger Str. 106-111, 10117 Berlin Allemagne","Wi-Fi gratuit|Parking|Centre sportif|Spa|100%|Climatisation - Contrôle de la climatisation|Eco-friendly|Animaux|Accessibilité|Occasions spéciales|Réunions|392 Chambres","True"
"64","nhow Berlin","Europe","Allemagne","Berlin"," Stralauer Allee, 3, 10245 Berlin Allemagne","Wi-Fi gratuit|Parking|Centre sportif|Spa|Climatisation - Contrôle de la climatisation|Eco-friendly|Animaux|Accessibilité|Occasions spéciales|Réunions|304 Chambres","True"
"65","NH Bingen","Europe","Allemagne","Bingen am Rhein"," Am Rhein Nahe Eck/Museumstrasse 3, 55411 Bingen am Rhein Allemagne","Wi-Fi gratuit|Parking|Spa|100%|Eco-friendly|Animaux|Occasions spéciales|Réunions|135 Chambres","True"
"66","NH Collection Köln Mediapark","Europe","Allemagne","Cologne"," Im Media Park 8b, 50670 Cologne Allemagne","Wi-Fi gratuit|Parking|Centre sportif|100%|Climatisation - Contrôle de la climatisation|Eco-friendly|Animaux|Occasions spéciales|Réunions|217 Chambres","True"
"67","NH Köln Altstadt","Europe","Allemagne","Cologne"," Holzmarkt 47, 50676 Cologne Allemagne","Parking|Centre sportif|100%|Climatisation - Contrôle de la climatisation|Eco-friendly|Animaux|Occasions spéciales|Réunions|204 Chambres","True"
"68","NH Dortmund","Europe","Allemagne","Dortmund"," Königswall 1, 44137 Dortmund Allemagne","Wi-Fi gratuit|Parking|100%|Eco-friendly|Animaux|Occasions spéciales|Réunions|190 Chambres","True"
"69","NH Collection Dresden Altmarkt","Europe","Allemagne","Dresde"," An der Kreuzkirche 2, 01067 Dresde Allemagne","Wi-Fi gratuit|Parking|Centre sportif|100%|Climatisation - Contrôle de la climatisation|Eco-friendly|Animaux|Accessibilité|Occasions spéciales|Réunions|240 Chambres","True"
"70","NH Dresden Neustadt","Europe","Allemagne","Dresde"," Hansastr. 43, 01097 Dresde Allemagne","Wi-Fi gratuit|Parking|Centre sportif|100%|Climatisation - Contrôle de la climatisation|Eco-friendly|Animaux|Accessibilité|Occasions spéciales|Réunions|269 Chambres","True"
"71","NH Düsseldorf City","Europe","Allemagne","Düsseldorf"," Kölner Str. 186-188, 40227 Düsseldorf Allemagne","Wi-Fi gratuit|Parking|Centre sportif|100%|Climatisation - Contrôle de la climatisation|Eco-friendly|Animaux|Accessibilité|Occasions spéciales|Réunions|338 Chambres","True"
"72","NH Düsseldorf City Nord","Europe","Allemagne","Düsseldorf"," Münsterstr. 230-238, 40470 Düsseldorf Allemagne","Wi-Fi gratuit|Parking|Centre sportif|100%|Climatisation - Contrôle de la climatisation|Eco-friendly|Animaux|Accessibilité|Occasions spéciales|Réunions|330 Chambres","True"
"73","NH Düsseldorf Königsallee","Europe","Allemagne","Düsseldorf"," Adersstr. 29-31, 40215 Düsseldorf Allemagne","Wi-Fi gratuit|Parking|100%|Eco-friendly|Animaux|111 Chambres","True"
"74","NH Erlangen","Europe","Allemagne","Erlangen"," Beethovenstr. 3, 91052 Erlangen Allemagne","Wi-Fi gratuit|Parking|Centre sportif|100%|Climatisation - Contrôle de la climatisation|Eco-friendly|Animaux|Accessibilité|Occasions spéciales|Réunions|138 Chambres","True"
"75","NH Essen","Europe","Allemagne","Essen"," Am Porscheplatz 9, 45127 Essen Allemagne","Wi-Fi gratuit|Parking|Centre sportif|100%|Climatisation - Contrôle de la climatisation|Animaux|Accessibilité|Baby-sitter|Occasions spéciales|Réunions|182 Chambres","False"
"76","NH Collection Frankfurt City","Europe","Allemagne","Francfort"," Vilbeler Str. 2, 60313 Francfort Allemagne","Wi-Fi gratuit|Parking|Centre sportif|100%|Eco-friendly|Animaux|Accessibilité|Occasions spéciales|Réunions|256 Chambres","True"
"77","NH Frankfurt Airport","Europe","Allemagne","Francfort"," Mörfelder Strasse 113, 65451 Kelsterbach Francfort Allemagne","Wi-Fi gratuit|Parking|Centre sportif|100%|Climatisation - Contrôle de la climatisation|Eco-friendly|Animaux|Accessibilité|Occasions spéciales|Réunions|158 Chambres","True"
"78","NH Frankfurt Airport West","Europe","Allemagne","Francfort"," Kelsterbacher Str. 19, 65479 Raunheim Francfort Allemagne","Wi-Fi gratuit|Parking|Centre sportif|Spa|100%|Climatisation - Contrôle de la climatisation|Eco-friendly|Animaux|Occasions spéciales|Réunions|306 Chambres","True"
"79","NH Frankfurt Messe","Europe","Allemagne","Francfort"," Friedrich-Ebert-Anlage 38, 60325 Francfort Allemagne","Wi-Fi gratuit|100%|Climatisation - Contrôle de la climatisation|Eco-friendly|Animaux|Baby-sitter|65 Chambres","True"
"80","NH Frankfurt Mörfelden Conference Center","Europe","Allemagne","Francfort"," Hessenring 9 64546 Mörfelden / Walldorf Francfort Allemagne","Wi-Fi gratuit|Parking|Centre sportif|Climatisation - Contrôle de la climatisation|Eco-friendly|Animaux|Accessibilité|Occasions spéciales|Réunions|299 Chambres","True"
"81","NH Frankfurt Niederrad","Europe","Allemagne","Francfort"," Lyoner Str. 5, 60528 Francfort Allemagne","Wi-Fi gratuit|Parking|100%|Climatisation - Contrôle de la climatisation|Eco-friendly|Animaux|Accessibilité|Occasions spéciales|Réunions|165 Chambres","True"
"82","NH Frankfurt Villa","Europe","Allemagne","Francfort"," Emil-Sulzbach-Str. 14-16, 60486 Francfort Allemagne","Wi-Fi gratuit|Parking|100%|Climatisation - Contrôle de la climatisation|Animaux|24 Chambres","False"
"83","NH Fürth Nürnberg","Europe","Allemagne","Fürth"," Königstr. 140, 90762 Fürth Allemagne","Wi-Fi gratuit|Parking|100%|Climatisation - Contrôle de la climatisation|Eco-friendly|Animaux|118 Chambres","True"
"84","NH Collection Hamburg City","Europe","Allemagne","Hambourg"," Feldstr. 53-58, 20357 Hambourg Allemagne","Wi-Fi gratuit|Parking|Spa|Eco-friendly|Animaux|Accessibilité|129 Chambres|Climatisation - Contrôle de la climatisation","True"
"85","NH Hamburg Altona","Europe","Allemagne","Hambourg"," Stresemannstr. 363-369, 22761 Hambourg Allemagne","Wi-Fi gratuit|Parking|Spa|Centre sportif|Eco-friendly|Animaux|Accessibilité|Occasions spéciales|Réunions|239 Chambres|Climatisation - Contrôle de la climatisation","True"
"86","NH Hamburg Horner Rennbahn","Europe","Allemagne","Hambourg"," Rennbahnstr. 90, 22111 Hambourg Allemagne","Wi-Fi gratuit|Parking|Centre sportif|100%|Climatisation - Contrôle de la climatisation|Eco-friendly|Animaux|Accessibilité|Occasions spéciales|Réunions|172 Chambres","True"
"87","NH Hamburg Mitte","Europe","Allemagne","Hambourg"," Schäferkampsallee 49, 20357 Hambourg Allemagne","Wi-Fi gratuit|Parking|100%|Climatisation - Contrôle de la climatisation|Eco-friendly|Animaux|134 Chambres","True"
"88","NH Hannover","Europe","Allemagne","Hanovre"," Am Klagesmarkt 12 30159 Hanovre Allemagne","Parking|100%|Climatisation - Contrôle de la climatisation|Centre sportif|Animaux|Accessibilité|91 Chambres","False"
"89","NH Heidelberg","Europe","Allemagne","Heidelberg"," Bergheimer Str. 91, 69115 Heidelberg Allemagne","Wi-Fi gratuit|Parking|Centre sportif|Spa|100%|Climatisation - Contrôle de la climatisation|Eco-friendly|Animaux|Accessibilité|Occasions spéciales|Réunions|174 Chambres","True"
"90","NH Hirschberg Heidelberg","Europe","Allemagne","Hirschberg"," Brandenburger Str. 30, 69493 Hirschberg Allemagne","Wi-Fi gratuit|Parking|Centre sportif|Spa|100%|Eco-friendly|Animaux|Occasions spéciales|Réunions|114 Chambres","True"
"91","NH Ingolstadt","Europe","Allemagne","Ingolstadt"," Goethestr. 153, 85055 Ingolstadt Allemagne","Parking|Wi-Fi gratuit|100%|Climatisation - Contrôle de la climatisation|Animaux|Eco-friendly|Accessibilité|Golf|Navette|Occasions spéciales|Réunions|119 Chambres","True"
"92","NH Leipzig Messe","Europe","Allemagne","Leipzig"," Fuggerstr. 2, 04158 Leipzig Allemagne","Wi-Fi gratuit|Parking|Centre sportif|Climatisation - Contrôle de la climatisation|Eco-friendly|Animaux|Accessibilité|Occasions spéciales|Réunions|308 Chambres","True"
"93","NH Leipzig Zentrum","Europe","Allemagne","Leipzig"," Burgplatz 5, 04109 Leipzig Allemagne","Wi-Fi gratuit|Parking|Centre sportif|100%|Climatisation - Contrôle de la climatisation|Animaux|Accessibilité|Occasions spéciales|Réunions|197 Chambres","False"
"94","NH Ludwigsburg","Europe","Allemagne","Ludwigsbourg"," Pflugfelder Str. 36, 71636 Ludwigsbourg Allemagne","Wi-Fi gratuit|Parking|Climatisation - Contrôle de la climatisation|Eco-friendly|Animaux|Occasions spéciales|Réunions|130 Chambres","True"
"95","NH Magdeburg","Europe","Allemagne","Magdeburg"," Olvenstedter Str. 2a, 39179 Barleben OT Ebendorf Magdeburg Allemagne","Wi-Fi gratuit|Parking|Centre sportif|Climatisation - Contrôle de la climatisation|Eco-friendly|Animaux|Accessibilité|Occasions spéciales|Réunions|142 Chambres","True"
"96","NH Mannheim","Europe","Allemagne","Mannheim"," Seckenheimer Strasse 146, 68165 Mannheim Allemagne","Wi-Fi gratuit|Parking|Centre sportif|100%|Climatisation - Contrôle de la climatisation|Animaux|Accessibilité|Occasions spéciales|Réunions|225 Chambres","False"
"97","NH Mannheim Viernheim","Europe","Allemagne","Mannheim"," Bürgermeister Neff Str. 12, 68519 Viernheim Mannheim Allemagne","Wi-Fi gratuit|Climatisation - Contrôle de la climatisation|Eco-friendly|Animaux|Accessibilité|Occasions spéciales|Réunions|121 Chambres","True"
"98","NH Collection München Bavaria","Europe","Allemagne","Munich"," Arnulfstr. 2 80335 Munich Allemagne","Wi-Fi gratuit|Centre sportif|100%|Climatisation - Contrôle de la climatisation|Eco-friendly|Animaux|Accessibilité|Occasions spéciales|Réunions|219 Chambres","True"
"99","NH München Airport","Europe","Allemagne","Munich"," Lohstr. 21, 85445 Schwaig/Oberding Munich Allemagne","Wi-Fi gratuit|Parking|Centre sportif|Navette|100%|Climatisation - Contrôle de la climatisation|Eco-friendly|Animaux|Occasions spéciales|Réunions|236 Chambres","True"
"100","NH München City Süd","Europe","Allemagne","Munich"," Ottobrunner Str. 17-19, 81737 Munich Allemagne","Wi-Fi gratuit|Parking|100%|Eco-friendly|Animaux|Golf|163 Chambres","True"
"101","NH München Messe","Europe","Allemagne","Munich"," Eggenfeldener Str. 100, 81929 Munich Allemagne","Wi-Fi gratuit|Parking|Centre sportif|100%|Climatisation - Contrôle de la climatisation|Eco-friendly|Animaux|Accessibilité|Occasions spéciales|Réunions|253 Chambres","True"
"102","NH München Ost Conference Center","Europe","Allemagne","Munich"," Einsteinring 20, 85609 Aschheim Munich Allemagne","Wi-Fi gratuit|Parking|Centre sportif|Climatisation - Contrôle de la climatisation|Eco-friendly|Animaux|Accessibilité|Golf|Occasions spéciales|Réunions|222 Chambres","True"
"103","NH München Unterhaching","Europe","Allemagne","Munich"," Leipziger Str. 1,  82008 Unterhaching Munich Allemagne","Wi-Fi gratuit|Parking|Centre sportif|100%|Climatisation - Contrôle de la climatisation|Eco-friendly|Animaux|80 Chambres","True"
"104","NH Klösterle Nördlingen","Europe","Allemagne","Nördlingen"," Beim Klösterle 1, 86720 Nördlingen Allemagne","Wi-Fi gratuit|Parking|Centre sportif|Spa|100%|Eco-friendly|Animaux|Occasions spéciales|Réunions|98 Chambres","True"
"105","NH Collection Nürnberg City","Europe","Allemagne","Nuremberg"," Bahnhofstr. 17-19, 90402 Nuremberg Allemagne","Wi-Fi gratuit|Parking|Centre sportif|100%|Climatisation - Contrôle de la climatisation|Eco-friendly|Animaux|Accessibilité|Occasions spéciales|Réunions|244 Chambres","True"
"106","NH Oberhausen","Europe","Allemagne","Oberhausen"," Düppelstr. 2, 46045 Oberhausen Allemagne","Wi-Fi gratuit|Parking|Centre sportif|100%|Climatisation - Contrôle de la climatisation|Animaux|Accessibilité|Occasions spéciales|Réunions|172 Chambres","False"
"107","NH Potsdam","Europe","Allemagne","Potsdam"," Friedrich-Ebert-Str. 88, 14467 Potsdam Allemagne","Wi-Fi gratuit|Parking|Centre sportif|Navette|Spa|Eco-friendly|Animaux|Golf|Occasions spéciales|Réunions|143 Chambres","True"
"108","NH Schwerin","Europe","Allemagne","Schwerin"," Zum Schulacker 1, 19061 Schwerin Allemagne","Wi-Fi gratuit|Parking|100%|Eco-friendly|Animaux|Accessibilité|Golf|Occasions spéciales|Réunions|144 Chambres","True"
"109","NH Stuttgart Airport","Europe","Allemagne","Stuttgart"," Bonländer Hauptstr. 145, 70794 Filderstadt Stuttgart Allemagne","Parking|Centre sportif|Climatisation - Contrôle de la climatisation|Navette|100%|Eco-friendly|Animaux|Accessibilité|Occasions spéciales|Réunions|208 Chambres","True"
"110","NH Stuttgart Sindelfingen","Europe","Allemagne","Stuttgart"," Riedmühlestr. 18-20, 71063 Sindelfingen Stuttgart Allemagne","Wi-Fi gratuit|Parking|Climatisation - Contrôle de la climatisation|Eco-friendly|Animaux|Occasions spéciales|Réunions|103 Chambres","True"
"111","NH Weinheim","Europe","Allemagne","Weinheim"," Breslauer Str. 52, 69469 Weinheim Allemagne","Wi-Fi gratuit|Parking|100%|Eco-friendly|Animaux|Accessibilité|Occasions spéciales|Réunions|187 Chambres","True"
"112","NH Wiesbaden","Europe","Allemagne","Wiesbaden"," Aukamm Allee 31, 65191 Wiesbaden Allemagne","Wi-Fi gratuit|Parking|Centre sportif|100%|Climatisation - Contrôle de la climatisation|Eco-friendly|Animaux|Occasions spéciales|Réunions|130 Chambres","True"
"113","NH Andorra La Vella","Europe","Andorre","Andorra La Vella"," Avinguda Doctor Mitjavila, 1 AD500 Andorra La Vella Andorre","Wi-Fi gratuit|Parking|100%|Climatisation - Contrôle de la climatisation|60 Chambres","False"
"114","NH Graz City","Europe","Autriche","Graz"," Karmeliterplatz 4a/4b, 8010 Graz Autriche","Wi-Fi gratuit|Parking|Centre sportif|100%|Climatisation - Contrôle de la climatisation|Animaux|Accessibilité|Occasions spéciales|Réunions|157 Chambres","False"
"115","NH Salzburg City","Europe","Autriche","Salzbourg"," Franz-Josef-Strasse 26, A-5020 Salzbourg Autriche","Wi-Fi gratuit|Parking|100%|Climatisation - Contrôle de la climatisation|Eco-friendly|Animaux|Golf|Occasions spéciales|Réunions|140 Chambres","True"
"116","NH Collection Wien Zentrum","Europe","Autriche","Vienne"," Mariahilfer Strasse 78, A-1070 Vienne Autriche","Wi-Fi gratuit|Parking|100%|Climatisation - Contrôle de la climatisation|Eco-friendly|Animaux|Baby-sitter|73 Chambres","True"
"117","NH Danube City","Europe","Autriche","Vienne"," Wagramer Strasse 21, 1220 Vienne Autriche","Wi-Fi gratuit|Centre sportif|Spa|100%|Climatisation - Contrôle de la climatisation|Eco-friendly|Animaux|Occasions spéciales|Réunions|252 Chambres","True"
"118","NH Vienna Airport Conference Center","Europe","Autriche","Vienne"," Einfahrtsstrasse 1- 3, 1300 Flughafen Wien Vienne Autriche","Wi-Fi gratuit|Parking|Centre sportif|Spa|100%|Climatisation - Contrôle de la climatisation|Eco-friendly|Animaux|Occasions spéciales|Réunions|499 Chambres","True"
"119","NH Wien Belvedere","Europe","Autriche","Vienne"," Rennweg 12a,  A-1030 Vienne Autriche","Wi-Fi gratuit|Parking|Centre sportif|Climatisation - Contrôle de la climatisation|Eco-friendly|Animaux|114 Chambres","True"
"120","NH Wien City","Europe","Autriche","Vienne"," Mariahilfer Straße 32-34 (via Lindeng. 9), 1070 Vienne Autriche","Wi-Fi gratuit|Parking|Centre sportif|100%|Climatisation - Contrôle de la climatisation|Eco-friendly|Animaux|105 Chambres","True"
"121","NH Collection Antwerp Centre","Europe","Belgique","Anvers"," Pelikaanstraat 84 2018 Anvers Belgique","Wi-Fi gratuit|Parking|Centre sportif|100%|Climatisation - Contrôle de la climatisation|Eco-friendly|Animaux|Accessibilité|Réunions|186 Chambres","True"
"122","NH Brugge","Europe","Belgique","Bruges"," Boeveriestraat 2, 8000 Bruges Belgique","Wi-Fi gratuit|Centre sportif|100%|Climatisation - Contrôle de la climatisation|Eco-friendly|Animaux|Accessibilité|Occasions spéciales|Réunions|149 Chambres","True"
"123","NH Brussels Airport","Europe","Belgique","Bruxelles"," De Kleetlaan, 14, B-1831 Diegem Bruxelles Belgique","Wi-Fi gratuit|Parking|Centre sportif|Navette|100%|Climatisation - Contrôle de la climatisation|Eco-friendly|Animaux|Accessibilité|Occasions spéciales|Réunions|234 Chambres","True"
"124","NH Brussels Carrefour Europe","Europe","Belgique","Bruxelles"," Rue Marche aux Herbes - Grasmarkt Straat, 110, B-1000 Bruxelles Belgique","Wi-Fi gratuit|Parking|100%|Climatisation - Contrôle de la climatisation|Eco-friendly|Animaux|Accessibilité|Baby-sitter|Occasions spéciales|Réunions|65 Chambres","True"
"125","NH Brussels EU Berlaymont","Europe","Belgique","Bruxelles"," Boulevard Charlemagne - Karel de Grotelaan, 11-19, 1000 Bruxelles Belgique","Wi-Fi gratuit|Parking|Centre sportif|100%|Climatisation - Contrôle de la climatisation|Eco-friendly|Animaux|Accessibilité|Occasions spéciales|Réunions|214 Chambres","True"
"126","NH Brussels Grand Place Arenberg","Europe","Belgique","Bruxelles"," Rue d'Assaut - Stormstraat, 15, 1000 Bruxelles Belgique","Wi-Fi gratuit|Parking|100%|Climatisation - Contrôle de la climatisation|Eco-friendly|Centre sportif|Animaux|Occasions spéciales|Réunions|155 Chambres","True"
"127","NH Brussels Louise","Europe","Belgique","Bruxelles"," Chaussée De Charleroi - Charleroise Steenweg, 17, 1060 Bruxelles Belgique","Wi-Fi gratuit|Parking|Centre sportif|100%|Climatisation - Contrôle de la climatisation|Eco-friendly|Animaux|Occasions spéciales|Réunions|246 Chambres","True"
"128","NH Brussels Stéphanie","Europe","Belgique","Bruxelles"," Rue Jean Stas - Jean Stasstraat, 32, 1060 Bruxelles Belgique","Wi-Fi gratuit|Parking|100%|Climatisation - Contrôle de la climatisation|Eco-friendly|Animaux|Baby-sitter|67 Chambres","True"
"129","NH Collection Brussels Centre","Europe","Belgique","Bruxelles"," Boulevard Adolphe Max - Adolphe Maxlaan, 7, 1000 Bruxelles Belgique","Wi-Fi gratuit|Centre sportif|100%|Climatisation - Contrôle de la climatisation|Eco-friendly|Animaux|Occasions spéciales|Réunions|241 Chambres","True"
"130","NH Collection Brussels Grand Sablon","Europe","Belgique","Bruxelles"," Rue Bodenbroek - Bodenbroekstraat, 2, B-1000 Bruxelles Belgique","Wi-Fi gratuit|Parking|100%|Centre sportif|Climatisation - Contrôle de la climatisation|Eco-friendly|Animaux|Occasions spéciales|Réunions|196 Chambres","True"
"131","nhow Brussels Bloom","Europe","Belgique","Bruxelles"," Rue Royale - Koningsstraat, 250, 1210 Bruxelles Belgique","Wi-Fi gratuit|Parking|Centre sportif|100%|Eco-friendly|Climatisation - Contrôle de la climatisation|Animaux|Accessibilité|Occasions spéciales|Réunions|305 Chambres","True"
"132","NH Gent Belfort","Europe","Belgique","Gand"," Hoogpoort 63, 9000 Gand Belgique","Wi-Fi gratuit|Parking|Centre sportif|100%|Climatisation - Contrôle de la climatisation|Eco-friendly|Animaux|Accessibilité|Occasions spéciales|Réunions|174 Chambres","True"
"133","NH Mechelen","Europe","Belgique","Malines"," Korenmarkt, 22-24, 2800 Malines Belgique","Wi-Fi gratuit|Parking|100%|Climatisation - Contrôle de la climatisation|Eco-friendly|Animaux|Occasions spéciales|Réunions|43 Chambres","True"
"134","NH Campo de Gibraltar","Europe","Espagne","Algeciras"," Brújula, 27 (Las Marismas), 11372 Los Barrios Algeciras Espagne","Wi-Fi gratuit|Parking|100%|Climatisation - Contrôle de la climatisation|Animaux|Accessibilité|Occasions spéciales|Réunions|100 Chambres","False"
"135","NH Alicante","Europe","Espagne","Alicante"," México, 18 (esquina Rosa Chacel), 03008 Alicante Espagne","Wi-Fi gratuit|Parking|Centre sportif|Piscine|100%|Climatisation - Contrôle de la climatisation|Animaux|Accessibilité|Occasions spéciales|Réunions|100 Chambres","False"
"136","NH Collection Palacio de Aranjuez","Europe","Espagne","Aranjuez"," C/ San Antonio, 22, 28300 Aranjuez Espagne","Wi-Fi gratuit|Parking|Centre sportif|Climatisation - Contrôle de la climatisation|Eco-friendly|Animaux|Accessibilité|Occasions spéciales|Réunions|86 Chambres","True"
"137","NH Collection Palacio de Avilés","Europe","Espagne","Aviles"," Plaza de España, 9, 33402 Aviles Espagne","Wi-Fi gratuit|Parking|Centre sportif|100%|Climatisation - Contrôle de la climatisation|Accessibilité|78 Chambres","False"
"138","NH Gran Hotel Casino Extremadura","Europe","Espagne","Badajoz"," Adolfo Diaz Ambrona, 11, 06006 Badajoz Espagne","Wi-Fi gratuit|Parking|Centre sportif|100%|Climatisation - Contrôle de la climatisation|Accessibilité|Baby-sitter|Occasions spéciales|Réunions|58 Chambres","False"
"139","NH Barcelona Diagonal Center","Europe","Espagne","Barcelone"," Àlaba, 94-96, 08018 Barcelone Espagne","Wi-Fi gratuit|Parking|Centre sportif|100%|Climatisation - Contrôle de la climatisation|Animaux|Accessibilité|Navette|Occasions spéciales|Réunions|129 Chambres","False"
"140","NH Barcelona Eixample","Europe","Espagne","Barcelone"," València, 105-107, 08011 Barcelone Espagne","Wi-Fi gratuit|Parking|Centre sportif|Climatisation - Contrôle de la climatisation|Eco-friendly|Animaux|Occasions spéciales|Réunions|81 Chambres","True"
"141","NH Barcelona Entenza","Europe","Espagne","Barcelone"," Ecuador, 20, 08029 Barcelone Espagne","Wi-Fi gratuit|Parking|Climatisation - Contrôle de la climatisation|Animaux|Réunions|48 Chambres","False"
"142","NH Barcelona Les Corts","Europe","Espagne","Barcelone"," Calle Nicaragua, 146 08029 Barcelone Espagne","Wi-Fi gratuit|Centre sportif|100%|Climatisation - Contrôle de la climatisation|Animaux|81 Chambres","False"
"143","NH Barcelona Stadium","Europe","Espagne","Barcelone"," Travessera de les Corts, 150-152, 08028 Barcelone Espagne","Wi-Fi gratuit|Parking|Centre sportif|Piscine|100%|Climatisation - Contrôle de la climatisation|Eco-friendly|Animaux|Accessibilité|Occasions spéciales|Réunions|106 Chambres","True"
"144","NH Collection Barcelona Constanza","Europe","Espagne","Barcelone"," C/ Deu i Mata, 69-99, 08029 Barcelone Espagne","Wi-Fi gratuit|Parking|Centre sportif|Piscine|Spa|100%|Climatisation - Contrôle de la climatisation|Eco-friendly|Animaux|Accessibilité|Occasions spéciales|Réunions|308 Chambres","True"
"145","NH Collection Barcelona Gran Hotel Calderón","Europe","Espagne","Barcelone"," Rambla Catalunya, 26, 08007 Barcelone Espagne","Wi-Fi gratuit|Parking|Centre sportif|Piscine|100%|Climatisation - Contrôle de la climatisation|Eco-friendly|Animaux|Accessibilité|Occasions spéciales|Réunions|255 Chambres","True"
"146","NH Collection Barcelona Pódium","Europe","Espagne","Barcelone"," Bailén, 4-6, 08010 Barcelone Espagne","Wi-Fi gratuit|Parking|Centre sportif|Piscine|Climatisation - Contrôle de la climatisation|Eco-friendly|Animaux|Accessibilité|Occasions spéciales|Réunions|140 Chambres","True"
"147","NH Porta Barcelona","Europe","Espagne","Barcelone"," Avda. Generalitat de Catalunya, 2-6, 08960 Sant Just Desvern Barcelone Espagne","Wi-Fi gratuit|Parking|Centre sportif|100%|Climatisation - Contrôle de la climatisation|Eco-friendly|Animaux|Accessibilité|Occasions spéciales|Réunions|99 Chambres","True"
"148","NH Sant Boi","Europe","Espagne","Barcelone"," Crta. Sta. Creu de Calafell, 101, 08830 Sant Boi de Llobregat Barcelone Espagne","Wi-Fi gratuit|Parking|Centre sportif|100%|Climatisation - Contrôle de la climatisation|Animaux|Accessibilité|Occasions spéciales|Réunions|124 Chambres","False"
"149","NH Sants Barcelona","Europe","Espagne","Barcelone"," Numancia, 74, 08029 Barcelone Espagne","Wi-Fi gratuit|Parking|100%|Climatisation - Contrôle de la climatisation|Eco-friendly|Animaux|Accessibilité|Occasions spéciales|Réunions|203 Chambres","True"
"150","NH Bilbao Deusto","Europe","Espagne","Bilbao"," Francisco Maciá, 9, 48014 Bilbao Espagne","Wi-Fi gratuit|Parking|100%|Climatisation - Contrôle de la climatisation|Eco-friendly|Animaux|Occasions spéciales|Réunions|71 Chambres","True"
"151","NH Collection Villa de Bilbao","Europe","Espagne","Bilbao"," Gran Vía, 87, 48011 Bilbao Espagne","Wi-Fi gratuit|Parking|100%|Centre sportif|Climatisation - Contrôle de la climatisation|Eco-friendly|Animaux|Accessibilité|Occasions spéciales|Réunions|142 Chambres","True"
"152","NH La Avanzada","Europe","Espagne","Bilbao"," Paseo Landabarri, 5, 48940 Leioa-Getxo Bilbao Espagne","Wi-Fi gratuit|Parking|100%|Climatisation - Contrôle de la climatisation|Animaux|Accessibilité|Réunions|120 Chambres","False"
"153","NH Collection Palacio de Burgos","Europe","Espagne","Burgos"," Calle de la Merced, 13, 09002 Burgos Espagne","Wi-Fi gratuit|Parking|Centre sportif|100%|Climatisation - Contrôle de la climatisation|Animaux|Accessibilité|Occasions spéciales|Réunions|110 Chambres","False"
"154","NH Collection Cáceres Palacio de Oquendo","Europe","Espagne","Cáceres"," Pza. San Juan 11, 10003 Cáceres Espagne","Wi-Fi gratuit|Climatisation - Contrôle de la climatisation|Centre sportif|Eco-friendly|Animaux|Occasions spéciales|Réunions|86 Chambres","True"
"155","NH Campo Cartagena","Europe","Espagne","Carthagène"," Ciudadela 24, 30203 Carthagène Espagne","Wi-Fi gratuit|Parking|Centre sportif|100%|Climatisation - Contrôle de la climatisation|Animaux|Accessibilité|Occasions spéciales|Réunions|100 Chambres","False"
"156","NH Cartagena","Europe","Espagne","Carthagène"," Real 2. Plza. Héroes de Cavite, 30201 Carthagène Espagne","Wi-Fi gratuit|Parking|100%|Climatisation - Contrôle de la climatisation|Animaux|Accessibilité|Occasions spéciales|Réunions|100 Chambres","False"
"157","NH Castellón Mindoro","Europe","Espagne","Castellon"," Moyano, 4, 12002 Castellon Espagne","Wi-Fi gratuit|Parking|Centre sportif|Climatisation - Contrôle de la climatisation|Animaux|Occasions spéciales|Réunions|102 Chambres","False"
"158","NH Castellón Turcosa","Europe","Espagne","Castellon"," Treballadors de la Mar, 1, 12100 Castellon Espagne","Wi-Fi gratuit|Climatisation - Contrôle de la climatisation|Animaux|Centre sportif|Occasions spéciales|Réunions|70 Chambres","False"
"159","NH Ciudad Real","Europe","Espagne","Ciudad Real"," Avenida Alarcos, 25, 13001 Ciudad Real Espagne","Wi-Fi gratuit|Parking|100%|Climatisation - Contrôle de la climatisation|Animaux|Accessibilité|Occasions spéciales|Réunions|89 Chambres","False"
"160","NH Collection Amistad Córdoba","Europe","Espagne","Cordoue"," Plaza de Maimónides, 3, 14004 Cordoue Espagne","Wi-Fi gratuit|Parking|Centre sportif|100%|Piscine|Climatisation - Contrôle de la climatisation|Eco-friendly|Animaux|Occasions spéciales|Réunions|108 Chambres","True"
"161","NH Córdoba Califa","Europe","Espagne","Cordoue"," Lope de Hoces, 14, 14003 Cordoue Espagne","Wi-Fi gratuit|Parking|100%|Climatisation - Contrôle de la climatisation|Accessibilité|Occasions spéciales|Réunions|65 Chambres","False"
"162","NH Ciudad de Cuenca","Europe","Espagne","Cuenca"," Ronda de San José, 1, 16004 Cuenca Espagne","Wi-Fi gratuit|Parking|Centre sportif|100%|Climatisation - Contrôle de la climatisation|Animaux|Accessibilité|Occasions spéciales|Réunions|74 Chambres","False"
"163","NH Gijón","Europe","Espagne","Gijon"," C/ Dr. Fleming, 71, 33203 Gijon Espagne","Wi-Fi gratuit|Parking|Piscine|Spa|100%|Climatisation - Contrôle de la climatisation|Eco-friendly|Animaux|Accessibilité|Occasions spéciales|Réunions|70 Chambres","True"
"164","NH Collection Granada Victoria","Europe","Espagne","Grenade"," Puerta Real, 3, 18005 Grenade Espagne","Wi-Fi gratuit|Parking|100%|Climatisation - Contrôle de la climatisation|Eco-friendly|Animaux|Accessibilité|Réunions|70 Chambres","True"
"165","NH Luz Huelva","Europe","Espagne","Huelva"," Alameda Sundheim, 26, 21003 Huelva Espagne","Wi-Fi gratuit|Parking|100%|Climatisation - Contrôle de la climatisation|Centre sportif|Animaux|Occasions spéciales|Réunions|106 Chambres","False"
"166","NH Avenida Jerez","Europe","Espagne","Jerez de la Frontera"," Avda. Alcalde Alvaro Domecq, 10, 11405 Jerez de la Frontera Espagne","Wi-Fi gratuit|Parking|100%|Climatisation - Contrôle de la climatisation|Animaux|Accessibilité|Occasions spéciales|Réunions|95 Chambres","False"
"167","NH Collection A Coruña Finisterre","Europe","Espagne","La Corogne"," Paseo del Parrote, 2-4 15001 La Corogne Espagne","Wi-Fi gratuit|Parking|Centre sportif|Piscine|Climatisation - Contrôle de la climatisation|Animaux|Accessibilité|Baby-sitter|Occasions spéciales|Réunions|92 Chambres","False"
"168","NH Imperial Playa","Europe","Espagne","Las Palmas de Gran Canaria"," Ferreras, 1, 35008 Las Palmas de Gran Canaria Espagne","Wi-Fi gratuit|Parking|Centre sportif|100%|Climatisation - Contrôle de la climatisation|Animaux|Accessibilité|Occasions spéciales|Réunions|162 Chambres","False"
"169","NH Las Palmas Playa Las Canteras","Europe","Espagne","Las Palmas de Gran Canaria"," Prudencio Morales, 41, 35009 Las Palmas de Gran Canaria Espagne","Wi-Fi gratuit|Parking|Centre sportif|100%|Climatisation - Contrôle de la climatisation|Animaux|Accessibilité|67 Chambres","False"
"170","NH Collection León Plaza Mayor","Europe","Espagne","Leon"," Plaza Mayor, 15-17, 24000 Leon Espagne","Wi-Fi gratuit|Parking|Centre sportif|100%|Climatisation - Contrôle de la climatisation|Eco-friendly|Animaux|Accessibilité|Réunions|51 Chambres","True"
"171","NH Lleida Pirineos","Europe","Espagne","Lleida"," Passeig de Ronda, 63, 25006 Lleida Espagne","Wi-Fi gratuit|Parking|Centre sportif|100%|Climatisation - Contrôle de la climatisation|Animaux|Accessibilité|Occasions spéciales|Réunions|92 Chambres","False"
"172","NH Logroño","Europe","Espagne","Logroño"," Avda. Club Deportivo, 98, 26007 Logroño Espagne","Wi-Fi gratuit|Parking|100%|Climatisation - Contrôle de la climatisation|Animaux|Accessibilité|110 Chambres","False"
"173","NH Logroño Herencia Rioja","Europe","Espagne","Logroño"," Marqués de Murrieta, 14, 26005 Logroño Espagne","Wi-Fi gratuit|Parking|100%|Animaux|Centre sportif|Baby-sitter|Occasions spéciales|Réunions|83 Chambres","False"
"174","NH Alcorcón","Europe","Espagne","Madrid"," Avda. Europa nº2 Edificio A, 28922 Alcorcón Madrid Espagne","Wi-Fi gratuit|Parking|Centre sportif|100%|Climatisation - Contrôle de la climatisation|Animaux|Accessibilité|Occasions spéciales|Réunions|102 Chambres","False"
"175","NH Collection Madrid Abascal","Europe","Espagne","Madrid"," C/José Abascal 47, 28003 Madrid Espagne","Wi-Fi gratuit|Parking|Centre sportif|100%|Animaux|Climatisation - Contrôle de la climatisation|Eco-friendly|Accessibilité|Baby-sitter|Occasions spéciales|Réunions|183 Chambres","True"
"176","NH Collection Madrid Colón","Europe","Espagne","Madrid"," Calle Marqués de Zurgena, 4, 28001 Madrid Espagne","Wi-Fi gratuit|Parking|Centre sportif|Piscine|100%|Climatisation - Contrôle de la climatisation|Eco-friendly|Animaux|Occasions spéciales|Réunions|146 Chambres","True"
"177","NH Collection Madrid Eurobuilding","Europe","Espagne","Madrid"," Padre Damián, 23, 28036 Madrid Espagne","Wi-Fi gratuit|Parking|Centre sportif|Spa|100%|Climatisation - Contrôle de la climatisation|Eco-friendly|Animaux|Accessibilité|Occasions spéciales|Réunions|412 Chambres","True"
"178","NH Collection Madrid Gran Vía","Europe","Espagne","Madrid"," Gran Via, 21, 28013 Madrid Espagne","Wi-Fi gratuit|100%|Climatisation - Contrôle de la climatisation|Animaux|Accessibilité|94 Chambres","False"
"179","NH Collection Madrid Palacio de Tepa","Europe","Espagne","Madrid"," San Sebastian, 2, 28012 Madrid Espagne","Wi-Fi gratuit|Parking|Centre sportif|Climatisation - Contrôle de la climatisation|Eco-friendly|Animaux|Accessibilité|Baby-sitter|Occasions spéciales|Réunions|83 Chambres","True"
"180","NH Collection Madrid Paseo del Prado","Europe","Espagne","Madrid"," Plaza Cánovas del Castillo, 4, 28014 Madrid Espagne","Wi-Fi gratuit|Centre sportif|100%|Climatisation - Contrôle de la climatisation|Eco-friendly|Accessibilité|Baby-sitter|Occasions spéciales|Réunions|113 Chambres","True"
"181","NH Collection Madrid Suecia","Europe","Espagne","Madrid"," Calle del Marqués de Casa Riera 4, 28014 Madrid Espagne","Wi-Fi gratuit|Centre sportif|Climatisation - Contrôle de la climatisation|Eco-friendly|Animaux|Accessibilité|Occasions spéciales|Réunions|123 Chambres","True"
"182","NH Leganés","Europe","Espagne","Madrid"," Esteban Terradas, 13, 28914 Leganés Madrid Espagne","Wi-Fi gratuit|Parking|Climatisation - Contrôle de la climatisation|Animaux|78 Chambres","False"
"183","NH Madrid Alonso Martínez","Europe","Espagne","Madrid"," Santa Engracia, 5, 28010 Madrid Espagne","Wi-Fi gratuit|Centre sportif|100%|Climatisation - Contrôle de la climatisation|Eco-friendly|Animaux|Réunions|101 Chambres","True"
"184","NH Madrid Atocha","Europe","Espagne","Madrid"," Paseo Infanta Isabel, 9, 28014 Madrid Espagne","Wi-Fi gratuit|100%|Climatisation - Contrôle de la climatisation|Animaux|Réunions|68 Chambres","False"
"185","NH Madrid Balboa","Europe","Espagne","Madrid"," Núñez de Balboa, 112, 28006 Madrid Espagne","Wi-Fi gratuit|Parking|Centre sportif|100%|Climatisation - Contrôle de la climatisation|Animaux|111 Chambres","False"
"186","NH Madrid Barajas Airport","Europe","Espagne","Madrid"," Catamarán, 1, 28042 Barajas Madrid Espagne","Wi-Fi gratuit|Parking|Centre sportif|100%|Climatisation - Contrôle de la climatisation|Animaux|Accessibilité|Navette|173 Chambres","False"
"187","NH Madrid Chamberí","Europe","Espagne","Madrid"," Bretón de los Herreros, 29, 28003 Madrid Espagne","Wi-Fi gratuit|100%|Climatisation - Contrôle de la climatisation|54 Chambres","False"
"188","NH Madrid Lagasca","Europe","Espagne","Madrid"," Lagasca, 64, 28001 Madrid Espagne","Wi-Fi gratuit|Parking|Centre sportif|100%|Climatisation - Contrôle de la climatisation|Animaux|Accessibilité|Occasions spéciales|Réunions|100 Chambres","False"
"189","NH Madrid Las Tablas","Europe","Espagne","Madrid"," Avenida de Burgos, 131, 28050 Madrid Espagne","Wi-Fi gratuit|Parking|Centre sportif|Spa|100%|Climatisation - Contrôle de la climatisation|Animaux|Accessibilité|Occasions spéciales|Réunions|149 Chambres","False"
"190","NH Madrid Nacional","Europe","Espagne","Madrid"," Paseo del Prado, 48, 28014 Madrid Espagne","Wi-Fi gratuit|Parking|100%|Climatisation - Contrôle de la climatisation|Eco-friendly|Animaux|Occasions spéciales|Réunions|206 Chambres","True"
"191","NH Madrid Paseo de la Habana","Europe","Espagne","Madrid"," Paseo de la Habana, 73, 28036 Madrid Espagne","Wi-Fi gratuit|Parking|100%|Climatisation - Contrôle de la climatisation|Animaux|Accessibilité|Baby-sitter|Occasions spéciales|Réunions|155 Chambres","False"
"192","NH Madrid Príncipe de Vergara","Europe","Espagne","Madrid"," Príncipe de Vergara, 92, 28006 Madrid Espagne","Wi-Fi gratuit|Parking|Centre sportif|Climatisation - Contrôle de la climatisation|Animaux|Accessibilité|Baby-sitter|Navette|Occasions spéciales|Réunions|155 Chambres","False"
"193","NH Madrid Ribera del Manzanares","Europe","Espagne","Madrid"," Paseo Virgen del Puerto, 57, 28005  Madrid Espagne","Wi-Fi gratuit|Parking|Piscine|Centre sportif|100%|Climatisation - Contrôle de la climatisation|Eco-friendly|Animaux|Accessibilité|Occasions spéciales|Réunions|224 Chambres","True"
"194","NH Madrid Sur","Europe","Espagne","Madrid"," Avd. Ciudad de Barcelona, 113, 28007 Madrid Espagne","Wi-Fi gratuit|Parking|100%|Climatisation - Contrôle de la climatisation|Animaux|Accessibilité|62 Chambres","False"
"195","NH Madrid Ventas","Europe","Espagne","Madrid"," Biarritz, 2, 28028 Madrid Espagne","Wi-Fi gratuit|Parking|Centre sportif|Piscine|100%|Climatisation - Contrôle de la climatisation|Eco-friendly|Animaux|Accessibilité|Occasions spéciales|Réunions|199 Chambres","True"
"196","NH Madrid Zurbano","Europe","Espagne","Madrid"," Calle Zurbano, 79-81, 28003 Madrid Espagne","Wi-Fi gratuit|Parking|100%|Climatisation - Contrôle de la climatisation|Eco-friendly|Animaux|Occasions spéciales|Réunions|257 Chambres","True"
"197","NH Pozuelo Ciudad de la Imagen","Europe","Espagne","Madrid"," Calle Luis Buñuel, nº 1, 28223 Pozuelo de Alarcón Madrid Espagne","Wi-Fi gratuit|Climatisation - Contrôle de la climatisation|Animaux|76 Chambres","False"
"198","NH Villa de Coslada","Europe","Espagne","Madrid"," Avenida de la Constitución, 75, 28820 Coslada Madrid Espagne","Wi-Fi gratuit|Parking|Climatisation - Contrôle de la climatisation|Accessibilité|Occasions spéciales|Réunions|78 Chambres","False"
"199","NH Málaga","Europe","Espagne","Malaga"," Calle San Jacinto, 2, 29007 Malaga Espagne","Wi-Fi gratuit|Parking|100%|Centre sportif|Piscine|Climatisation - Contrôle de la climatisation|Animaux|Accessibilité|Occasions spéciales|Réunions|245 Chambres","False"
"200","Anantara Villa Padierna Palace Benahavís Marbella Resort","Europe","Espagne","Marbella"," Urb. Villa Padierna Golf Resort. Crta Cadiz km 166 29679 Marbella Espagne","Wi-Fi gratuit|Parking|Centre sportif|Piscine|Spa|Climatisation - Contrôle de la climatisation|Animaux|Accessibilité|Baby-sitter|Golf|Occasions spéciales|Réunions|132 Chambres","False"
"201","NH Marbella","Europe","Espagne","Marbella"," Avenida Conde de Rudi, s/n Finca de la Caridad, 29600 Marbella Espagne","Wi-Fi gratuit|Parking|Centre sportif|Piscine|Climatisation - Contrôle de la climatisation|Accessibilité|Occasions spéciales|Réunions|163 Chambres","False"
"202","NH San Pedro de Alcántara","Europe","Espagne","Marbella"," Jerez, 1, 29670 San Pedro de Alcantara Marbella Espagne","Wi-Fi gratuit|Parking|Climatisation - Contrôle de la climatisation|Occasions spéciales|Réunions|60 Chambres","False"
"203","NH Amistad Murcia","Europe","Espagne","Murcie"," Condestable, 1, 30009 Murcie Espagne","Wi-Fi gratuit|Parking|100%|Centre sportif|Climatisation - Contrôle de la climatisation|Animaux|Accessibilité|Occasions spéciales|Réunions|144 Chambres","False"
"204","NH Ourense","Europe","Espagne","Ourense"," Celso Emilio Ferreiro, 24, 32004 Ourense Espagne","Wi-Fi gratuit|Parking|Centre sportif|100%|Climatisation - Contrôle de la climatisation|Accessibilité|Occasions spéciales|Réunions|41 Chambres","False"
"205","NH Oviedo Principado","Europe","Espagne","Oviedo"," San Francisco, 6, 33003 Oviedo Espagne","Wi-Fi gratuit|Parking|100%|Climatisation - Contrôle de la climatisation|Occasions spéciales|Réunions|89 Chambres","False"
"206","NH Pamplona Iruña Park","Europe","Espagne","Pampelune"," Arcadio Mª Larraona, 1, 31008 Pampelune Espagne","Wi-Fi gratuit|Parking|Centre sportif|100%|Climatisation - Contrôle de la climatisation|Eco-friendly|Animaux|Accessibilité|Baby-sitter|Occasions spéciales|Réunions|213 Chambres","True"
"207","NH Ciutat de Reus","Europe","Espagne","Reus"," Avinguda Marià Fortuny, 85, 43203 Reus Espagne","Wi-Fi gratuit|Parking|Climatisation - Contrôle de la climatisation|Eco-friendly|Animaux|Accessibilité|Occasions spéciales|Réunions|84 Chambres","True"
"208","NH Collection Santiago de Compostela","Europe","Espagne","Saint Jacques de Compostelle"," Avenida Burgo das Nacions s/n, 15705 Saint Jacques de Compostelle Espagne","Wi-Fi gratuit|Parking|Centre sportif|Piscine|100%|Climatisation - Contrôle de la climatisation|Animaux|Accessibilité|Occasions spéciales|Réunions|150 Chambres","False"
"209","NH Collection San Sebastián Aránzazu","Europe","Espagne","Saint Sébastien"," Vitoria-Gasteiz, 1, 20018 Saint Sébastien Espagne","Wi-Fi gratuit|Parking|Centre sportif|100%|Climatisation - Contrôle de la climatisation|Eco-friendly|Animaux|Accessibilité|Occasions spéciales|Réunions|180 Chambres","True"
"210","NH Collection Salamanca Palacio de Castellanos","Europe","Espagne","Salamanque"," San Pablo, 58-64, 37008 Salamanque Espagne","Wi-Fi gratuit|Parking|100%|Climatisation - Contrôle de la climatisation|Animaux|Baby-sitter|Occasions spéciales|Réunions|62 Chambres","False"
"211","NH Salamanca Puerta de la Catedral","Europe","Espagne","Salamanque"," Plaza Juan XXIII, 5, 37008 Salamanque Espagne","Wi-Fi gratuit|Parking|100%|Climatisation - Contrôle de la climatisation|Animaux|Accessibilité|Baby-sitter|Occasions spéciales|Réunions|37 Chambres","False"
"212","NH Tenerife","Europe","Espagne","Santa Cruz de Tenerife"," Candelaria Esquina Doctor Allart, 38003 Santa Cruz de Tenerife Espagne","Wi-Fi gratuit|Parking|100%|Climatisation - Contrôle de la climatisation|Animaux|Accessibilité|Occasions spéciales|Réunions|64 Chambres","False"
"213","NH Ciudad de Santander","Europe","Espagne","Santander"," Menéndez Pelayo, 13-15, 39006 Santander Espagne","Wi-Fi gratuit|Parking|100%|Climatisation - Contrôle de la climatisation|Eco-friendly|Animaux|Accessibilité|Occasions spéciales|Réunions|62 Chambres","True"
"214","NH Ciudad de Zaragoza","Europe","Espagne","Saragosse"," Avenida César Augusto, 125, 50003 Saragosse Espagne","Wi-Fi gratuit|Centre sportif|Parking|100%|Climatisation - Contrôle de la climatisation|Animaux|Accessibilité|Occasions spéciales|Réunions|124 Chambres","False"
"215","NH Collection Gran Hotel de Zaragoza","Europe","Espagne","Saragosse"," Joaquin Costa, 5, 50001 Saragosse Espagne","Wi-Fi gratuit|Parking|Centre sportif|Climatisation - Contrôle de la climatisation|Eco-friendly|Animaux|Accessibilité|Occasions spéciales|Réunions|133 Chambres","True"
"216","NH Sport","Europe","Espagne","Saragosse"," Moncayo, 5 (esq. Calle Asturias), 50010 Saragosse Espagne","Wi-Fi gratuit|Parking|100%|Climatisation - Contrôle de la climatisation|Animaux|Réunions|64 Chambres","False"
"217","NH Collection Sevilla","Europe","Espagne","Séville"," Avda Diego Martinez Barrio, 8, 41013 Séville Espagne","Wi-Fi gratuit|Parking|Centre sportif|Piscine|Climatisation - Contrôle de la climatisation|Eco-friendly|Animaux|Accessibilité|Occasions spéciales|Réunions|252 Chambres","True"
"218","NH Sevilla Plaza de Armas","Europe","Espagne","Séville"," Marqués de Paradas, s/n, 41001 Séville Espagne","Wi-Fi gratuit|Parking|Centre sportif|Piscine|Climatisation - Contrôle de la climatisation|Eco-friendly|Animaux|Accessibilité|Baby-sitter|Occasions spéciales|Réunions|262 Chambres","True"
"219","NH Ciudad de Valencia","Europe","Espagne","Valence"," Avenida del Puerto, 214, 46023 Valence Espagne","Wi-Fi gratuit|Parking|Centre sportif|100%|Climatisation - Contrôle de la climatisation|Animaux|Accessibilité|Occasions spéciales|Réunions|149 Chambres","False"
"220","NH Collection Valencia Colón","Europe","Espagne","Valence"," Calle Colón, 32, 46004 Valence Espagne","Wi-Fi gratuit|Parking|Centre sportif|100%|Climatisation - Contrôle de la climatisation|Accessibilité|47 Chambres","False"
"221","NH Valencia Center","Europe","Espagne","Valence"," Ricardo Micó, 1, 46009 Valence Espagne","Wi-Fi gratuit|Parking|Centre sportif|Piscine|Climatisation - Contrôle de la climatisation|Animaux|Accessibilité|Occasions spéciales|Réunions|192 Chambres","False"
"222","NH Valencia Las Artes","Europe","Espagne","Valence"," Avenida Instituto Obrero, 28, 46013 Valence Espagne","Wi-Fi gratuit|Parking|Centre sportif|Piscine|100%|Climatisation - Contrôle de la climatisation|Animaux|Accessibilité|Occasions spéciales|Réunions|174 Chambres","False"
"223","NH Valencia Las Ciencias","Europe","Espagne","Valence"," Instituto Obrero de Valencia, 26-28, 46013 Valence Espagne","Wi-Fi gratuit|Parking|100%|Climatisation - Contrôle de la climatisation|Animaux|Occasions spéciales|Réunions|121 Chambres","False"
"224","NH Ciudad de Valladolid","Europe","Espagne","Valladolid"," Avenida Ramón Pradera, 10-12, 47009 Valladolid Espagne","Wi-Fi gratuit|Parking|100%|Climatisation - Contrôle de la climatisation|Animaux|Accessibilité|Occasions spéciales|Réunions|80 Chambres","False"
"225","NH Valladolid Bálago","Europe","Espagne","Valladolid"," Las Mieses, 28, 47009 Valladolid Espagne","Wi-Fi gratuit|Parking|Centre sportif|Spa|100%|Climatisation - Contrôle de la climatisation|Animaux|Accessibilité|Occasions spéciales|Réunions|120 Chambres","False"
"226","NH Collection Vigo","Europe","Espagne","Vigo"," Avenida García Barbón, 17-19, 36201 Vigo Espagne","Wi-Fi gratuit|Parking|Centre sportif|100%|Climatisation - Contrôle de la climatisation|Accessibilité|Baby-sitter|Occasions spéciales|Réunions|108 Chambres","False"
"227","NH Canciller Ayala Vitoria","Europe","Espagne","Vitoria"," Ramón y Cajal, 5, 01007 Vitoria Espagne","Wi-Fi gratuit|Parking|Climatisation - Contrôle de la climatisation|Animaux|Baby-sitter|Occasions spéciales|Réunions|173 Chambres","False"
"228","NH Zamora Palacio del Duero","Europe","Espagne","Zamora"," Plaza de la Horta, 1, 49002 Zamora Espagne","Wi-Fi gratuit|Parking|Climatisation - Contrôle de la climatisation|Accessibilité|Occasions spéciales|Réunions|49 Chambres","False"
"229","NH Lyon Airport","Europe","France","Lyon"," 915 Rue d'Espagne, 69125 Lyon France","Wi-Fi gratuit|Centre sportif|Climatisation - Contrôle de la climatisation|Eco-friendly|Animaux|Accessibilité|Occasions spéciales|Réunions|245 Chambres","True"
"230","NH Collection Marseille","Europe","France","Marseille"," 37 Boulevard des Dames, 13002 Marseille France","Wi-Fi gratuit|Centre sportif|100%|Animaux|Accessibilité|Occasions spéciales|Réunions|176 Chambres","False"
"231","nhow Marseille","Europe","France","Marseille"," 200 Corniche J.F Kennedy, 13007 Marseille France","Wi-Fi gratuit|Parking|Centre sportif|Piscine|Spa|Animaux|Accessibilité|Occasions spéciales|Réunions|150 Chambres","False"
"232","NH Nice","Europe","France","Nice"," 2-4, Parvis de l´Europe, 06300 Nice France","Wi-Fi gratuit|Parking|Centre sportif|Spa|100%|Climatisation - Contrôle de la climatisation|Eco-friendly|Animaux|Accessibilité|Occasions spéciales|Réunions|152 Chambres","True"
"233","NH Toulouse Airport","Europe","France","Toulouse"," 15 rue Charles Lindbergh, Blagnac, 31700 Toulouse France","Wi-Fi gratuit|Parking|Centre sportif|100%|Climatisation - Contrôle de la climatisation|Animaux|Accessibilité|Occasions spéciales|Réunions|148 Chambres","False"
"234","Anantara New York Palace Budapest Hotel","Europe","Hongrie","Budapest"," Erzsébet krt. 9 1073 Budapest Budapest Hongrie","Wi-Fi gratuit|Centre sportif|Spa|100%|Climatisation - Contrôle de la climatisation|Animaux|Accessibilité|Occasions spéciales|Réunions|185 Chambres","False"
"235","NH Budapest City","Europe","Hongrie","Budapest"," Vígszínház u. 3, H-1137 Budapest Hongrie","Wi-Fi gratuit|Parking|Centre sportif|100%|Climatisation - Contrôle de la climatisation|Animaux|Accessibilité|Occasions spéciales|Réunions|160 Chambres","False"
"236","NH Collection Budapest City Center","Europe","Hongrie","Budapest"," Osvát u. 2-8 1073 Budapest Hongrie","Wi-Fi gratuit|100%|Climatisation - Contrôle de la climatisation|Animaux|Accessibilité|138 Chambres","False"
"237","The Marker Hotel","Europe","Irlande","Dublin"," Grand Canal Square, Docklands D02 CK38 Dublin Irlande","Wi-Fi gratuit|Parking|Centre sportif|Piscine|Spa|100%|Climatisation - Contrôle de la climatisation|Accessibilité|Occasions spéciales|Réunions|187 Chambres","False"
"238","NH Ancona","Europe","Italie","Ancône"," Rupi di Via XXIX Settembre, 14, 60122 Ancône Italie","Wi-Fi gratuit|Parking|Climatisation - Contrôle de la climatisation|Animaux|Occasions spéciales|Réunions|89 Chambres","False"
"239","NH Bergamo","Europe","Italie","Bergame"," Via Paleocapa 1/G, 24122 Bergame Italie","Wi-Fi gratuit|Parking|Climatisation - Contrôle de la climatisation|Centre sportif|Eco-friendly|Animaux|Accessibilité|Occasions spéciales|Réunions|88 Chambres","True"
"240","NH Orio al Serio","Europe","Italie","Bergame"," Via Portico , 75, 24050 Orio al Serio Bergame Italie","Wi-Fi gratuit|Parking|Centre sportif|100%|Navette|Climatisation - Contrôle de la climatisation|Eco-friendly|Animaux|Accessibilité|Occasions spéciales|Réunions|118 Chambres","True"
"241","NH Bologna Villanova","Europe","Italie","Bologne"," Via Villanova, 29/8, 40055 Villanova di Castenaso Bologne Italie","Wi-Fi gratuit|Parking|Centre sportif|Piscine|Climatisation - Contrôle de la climatisation|Eco-friendly|Animaux|Occasions spéciales|Réunions|209 Chambres","True"
"242","NH Bologna de la Gare","Europe","Italie","Bologne"," Piazza XX Settembre, 2, 40121 Bologne Italie","Wi-Fi gratuit|Parking|Climatisation - Contrôle de la climatisation|Eco-friendly|Animaux|Accessibilité|Occasions spéciales|Réunions|156 Chambres","True"
"243","NH Caltagirone Villa San Mauro","Europe","Italie","Caltagirone"," Via Portosalvo, 26, 95041 Caltagirone Italie","Wi-Fi gratuit|Parking|Piscine|Climatisation - Contrôle de la climatisation|Animaux|Accessibilité|Occasions spéciales|Réunions|91 Chambres","False"
"244","NH Catania Centro","Europe","Italie","Catane"," Piazza Trento, 13, 95129 Catane Italie","Wi-Fi gratuit|Parking|Centre sportif|100%|Climatisation - Contrôle de la climatisation|Eco-friendly|Animaux|Accessibilité|Occasions spéciales|Réunions|128 Chambres","True"
"245","NH Catania Parco Degli Aragonesi","Europe","Italie","Catane"," Viale Kennedy. Località La Playa, 95121 Catane Italie","Wi-Fi gratuit|Parking|Piscine|Centre sportif|100%|Climatisation - Contrôle de la climatisation|Eco-friendly|Animaux|Accessibilité|Occasions spéciales|Réunions|124 Chambres","True"
"246","NH Collection Grand Hotel Convento di Amalfi","Europe","Italie","Côte Amalfitaine"," Via Annunziatella, 46, 84011 Côte Amalfitaine Côte Amalfitaine Italie","Wi-Fi gratuit|Parking|Centre sportif|Piscine|Spa|100%|Climatisation - Contrôle de la climatisation|Eco-friendly|Animaux|Accessibilité|Baby-sitter|53 Chambres|Animaux","True"
"247","NH Collection Firenze Palazzo Gaddi","Europe","Italie","Florence"," Via del Giglio, 9 50123 Florence Italie","Wi-Fi gratuit|Climatisation - Contrôle de la climatisation|Animaux|Accessibilité|Occasions spéciales|Réunions|86 Chambres","False"
"248","NH Collection Firenze Porta Rossa","Europe","Italie","Florence"," Via Porta Rossa, 19, 50123 Florence Italie","Wi-Fi gratuit|Parking|Climatisation - Contrôle de la climatisation|Eco-friendly|Animaux|Accessibilité|Baby-sitter|Occasions spéciales|Réunions|70 Chambres","True"
"249","NH Firenze","Europe","Italie","Florence"," Piazza Vittorio Veneto, 4/A, 50123 Florence Florence Italie","Wi-Fi gratuit|Parking|Climatisation - Contrôle de la climatisation|Eco-friendly|Animaux|Accessibilité|Occasions spéciales|Réunions|152 Chambres|Piscine","True"
"250","NH Collection Genova Marina","Europe","Italie","Gênes"," Molo Ponte Calvi, 5, 16124 Gênes Italie","Wi-Fi gratuit|Parking|Centre sportif|Eco-friendly|Animaux|Accessibilité|Occasions spéciales|Réunions|140 Chambres","True"
"251","NH Genova Centro","Europe","Italie","Gênes"," Via Martin Piaggio, 11, 16122 Gênes Italie","Wi-Fi gratuit|Parking|Centre sportif|Climatisation - Contrôle de la climatisation|Eco-friendly|Animaux|Accessibilité|Occasions spéciales|Réunions|141 Chambres","True"
"252","NH La Spezia","Europe","Italie","La Spezia "," Via XX Settembre, 2, 19124 La Spezia La Spezia - Cinque Terre Italie","Wi-Fi gratuit|Parking|Centre sportif|100%|Climatisation - Contrôle de la climatisation|Eco-friendly|Animaux|Occasions spéciales|Réunions|110 Chambres","True"
"253","NH Lecco Pontevecchio","Europe","Italie","Lecco, Lac de Côme"," Via A. Visconti, 84, 23900 Lecco, Lac de Côme Italie","Wi-Fi gratuit|Parking|Climatisation - Contrôle de la climatisation|Navette|Centre sportif|Eco-friendly|Animaux|Accessibilité|Occasions spéciales|Réunions|111 Chambres","True"
"254","NH Collection Milano Porta Nuova","Europe","Italie","Milan"," Via Melchiorre Gioia, 6, 20124 Milan Italie","Wi-Fi gratuit|Parking|Centre sportif|Climatisation - Contrôle de la climatisation|Eco-friendly|Animaux|Accessibilité|Occasions spéciales|100 Chambres","True"
"255","NH Collection Milano President","Europe","Italie","Milan"," Largo Augusto, 10, 20122 Milan Italie","Wi-Fi gratuit|Parking|Centre sportif|100%|Climatisation - Contrôle de la climatisation|Eco-friendly|Animaux|Accessibilité|Occasions spéciales|Réunions|274 Chambres","True"
"256","NH Linate","Europe","Italie","Milan"," Via A. Grandi, 12, 20068 Peschiera Borromeo Milan Italie","Wi-Fi gratuit|Parking|Climatisation - Contrôle de la climatisation|Eco-friendly|Animaux|Accessibilité|Occasions spéciales|Réunions|67 Chambres","True"
"257","NH Milano 2","Europe","Italie","Milan"," Strada di Olgia Nuova snc - Loc. Segrate, 20090  Segrate Milan Italie","Wi-Fi gratuit|Parking|Centre sportif|100%|Climatisation - Contrôle de la climatisation|Eco-friendly|Animaux|Accessibilité|Occasions spéciales|Réunions|143 Chambres","True"
"258","NH Milano 2 Residence","Europe","Italie","Milan"," Strada di Olgia Vecchia SNC 20090 Segrate Milan Italie","Wi-Fi gratuit|Parking|Centre sportif|Climatisation - Contrôle de la climatisation|Eco-friendly|Animaux|Accessibilité|Occasions spéciales|Réunions|134 Chambres","True"
"259","NH Milano Concordia","Europe","Italie","Milan"," Via Luciano Lama n.10 (ang.Viale Edison), 20099 Sesto San Giovanni Milan Italie","Wi-Fi gratuit|Parking|Centre sportif|Climatisation - Contrôle de la climatisation|Eco-friendly|Animaux|Accessibilité|Occasions spéciales|Réunions|155 Chambres","True"
"260","NH Milano Congress Centre","Europe","Italie","Milan"," Strada 2a, Milanofiori, 20090 Assago Milan Italie","Wi-Fi gratuit|Parking|Centre sportif|100%|Climatisation - Contrôle de la climatisation|Animaux|Occasions spéciales|Réunions|255 Chambres","False"
"261","NH Milano Fiera","Europe","Italie","Milan"," Viale degli Alberghi s/n, 20017 Rho Milan Italie","Wi-Fi gratuit|Parking|Centre sportif|100%|Climatisation - Contrôle de la climatisation|Eco-friendly|Animaux|Accessibilité|Occasions spéciales|Réunions|398 Chambres","True"
"262","NH Milano Machiavelli","Europe","Italie","Milan"," Via Lazzaretto, 5, 20124 Milan Italie","Wi-Fi gratuit|Parking|Climatisation - Contrôle de la climatisation|Eco-friendly|Animaux|Accessibilité|Occasions spéciales|Réunions|103 Chambres","True"
"263","NH Milano Palazzo Moscova","Europe","Italie","Milan"," Viale Monte Grappa 12, 20124 Milan Italie","Wi-Fi gratuit|Centre sportif|Spa|100%|Climatisation - Contrôle de la climatisation|Eco-friendly|Animaux|Accessibilité|Occasions spéciales|Réunions| Chambres","True"
"264","NH Milano Touring","Europe","Italie","Milan"," Via Ugo Tarchetti, 2, 20121 Milan Italie","Wi-Fi gratuit|Parking|Centre sportif|100%|Climatisation - Contrôle de la climatisation|Eco-friendly|Animaux|Accessibilité|Occasions spéciales|Réunions|282 Chambres","True"
"265","nhow Milano","Europe","Italie","Milan"," Via Tortona 35, 20144 Milan Italie","Wi-Fi gratuit|Parking|Centre sportif|Navette|Climatisation - Contrôle de la climatisation|Eco-friendly|Animaux|Accessibilité|Occasions spéciales|Réunions| Chambres","True"
"266","NH Napoli Panorama","Europe","Italie","Naples"," Via Medina, 70, 80133 Naples Italie","Wi-Fi gratuit|Parking|Centre sportif|100%|Climatisation - Contrôle de la climatisation|Eco-friendly|Animaux|Accessibilité|Baby-sitter|Occasions spéciales|Réunions|230 Chambres","True"
"267","NH Padova","Europe","Italie","Padoue"," Via Tommaseo, 61, 35131 Padoue Italie","Wi-Fi gratuit|Parking|Centre sportif|Climatisation - Contrôle de la climatisation|Eco-friendly|Animaux|Accessibilité|Occasions spéciales|Réunions|190 Chambres","True"
"268","NH Palermo","Europe","Italie","Palerme"," Foro Italico, 90133 Palerme Italie","Wi-Fi gratuit|Parking|Centre sportif|Piscine|100%|Climatisation - Contrôle de la climatisation|Eco-friendly|Animaux|Accessibilité|Occasions spéciales|Réunions|157 Chambres","True"
"269","NH Parma","Europe","Italie","Parme"," Viale Paolo Borsellino, 31, 43122 Parme Italie","Wi-Fi gratuit|Parking|Centre sportif|100%|Climatisation - Contrôle de la climatisation|Eco-friendly|Animaux|Accessibilité|Baby-sitter|Occasions spéciales|Réunions|120 Chambres","True"
"270","NH Pisa","Europe","Italie","Pise"," Piazza della Stazione, 2, 56125 Pise Italie","Wi-Fi gratuit|Parking|Climatisation - Contrôle de la climatisation|Eco-friendly|Animaux|Accessibilité|Occasions spéciales|Réunions|100 Chambres","True"
"271","NH Ravenna","Europe","Italie","Ravenne"," Piazza Mameli, 1, 48121 Ravenne Italie","Wi-Fi gratuit|Parking|Climatisation - Contrôle de la climatisation|Eco-friendly|Animaux|Accessibilité|Occasions spéciales|Réunions|84 Chambres","True"
"272","Anantara Palazzo Naiadi Rome Hotel","Europe","Italie","Rome"," Piazza della Repubblica, 47 00185 Rome Italie","Wi-Fi gratuit|Centre sportif|Spa|100%|Climatisation - Contrôle de la climatisation|Animaux|Accessibilité|Occasions spéciales|Réunions|238 Chambres","False"
"273","NH Collection Roma Centro","Europe","Italie","Rome"," Via dei Gracchi, 324, 00192 Rome Italie","Wi-Fi gratuit|Parking|Climatisation - Contrôle de la climatisation|Eco-friendly|Animaux|Accessibilité|Occasions spéciales|Réunions|258 Chambres","True"
"274","NH Collection Roma Fori Imperiali","Europe","Italie","Rome"," Via di Santa Eufemia, 19 00187 Rome Italie","Wi-Fi gratuit|100%|Climatisation - Contrôle de la climatisation|Eco-friendly|Animaux|Accessibilité|42 Chambres","True"
"275","NH Collection Roma Giustiniano","Europe","Italie","Rome"," Via Virgilio, 1 E/F/G, 00193 Rome Italie","Wi-Fi gratuit|Parking|Centre sportif|Climatisation - Contrôle de la climatisation|Eco-friendly|Animaux|Accessibilité|Baby-sitter|Occasions spéciales|Réunions|161 Chambres","True"
"276","NH Collection Roma Palazzo Cinquecento","Europe","Italie","Rome"," Piazza dei Cinquecento, 90, 00185 Rome Italie","Wi-Fi gratuit|Parking|Centre sportif|Climatisation - Contrôle de la climatisation|Eco-friendly|Animaux|Accessibilité|Occasions spéciales|Réunions|177 Chambres","True"
"277","NH Collection Roma Vittorio Veneto","Europe","Italie","Rome"," Corso d'Italia, 1, 00198 Rome Italie","Wi-Fi gratuit|Parking|Centre sportif|Climatisation - Contrôle de la climatisation|Eco-friendly|Animaux|Accessibilité|Baby-sitter|Occasions spéciales|Navette|Réunions|199 Chambres","True"
"278","NH Roma Villa Carpegna","Europe","Italie","Rome"," Via Pio IV, 6, 00165 Rome Italie","Wi-Fi gratuit|Parking|Centre sportif|Piscine|Climatisation - Contrôle de la climatisation|Eco-friendly|Animaux|Accessibilité|Baby-sitter|Occasions spéciales|Réunions|201 Chambres","True"
"279","NH Savona Darsena","Europe","Italie","Savone"," Via A. Chiodo, 9, 17100 Savone Italie","Wi-Fi gratuit|Parking|100%|Climatisation - Contrôle de la climatisation|Eco-friendly|Animaux|Accessibilité|Occasions spéciales|Réunions|92 Chambres","True"
"280","NH Siena","Europe","Italie","Sienne"," Piazza La Lizza, 53100 Sienne Italie","Wi-Fi gratuit|Centre sportif|100%|Climatisation - Contrôle de la climatisation|Eco-friendly|Animaux|Accessibilité|Occasions spéciales|Réunions|129 Chambres","True"
"281","NH Collection Taormina","Europe","Italie","Taormine"," Via Circonvallazione 11, 98039 Taormine Italie","Wi-Fi gratuit|Parking|Centre sportif|Piscine|Spa|100%|Climatisation - Contrôle de la climatisation|Animaux|Eco-friendly|Accessibilité|Occasions spéciales|Réunions|63 Chambres","True"
"282","NH Trento","Europe","Italie","Trento"," Via Adalberto Libera, 38121 Trento Italie","Wi-Fi gratuit|Parking|Centre sportif|100%|Climatisation - Contrôle de la climatisation|Eco-friendly|Animaux|Accessibilité|Occasions spéciales|Réunions|89 Chambres","True"
"283","NH Trieste","Europe","Italie","Trieste"," Corso Cavour, 7, 34132 Trieste Italie","Wi-Fi gratuit|Parking|Centre sportif|100%|Climatisation - Contrôle de la climatisation|Eco-friendly|Animaux|Occasions spéciales|Réunions|173 Chambres","True"
"284","NH Collection Torino Piazza Carlina","Europe","Italie","Turin"," 15 Piazza Carlo Emanuele II, 10123 Turin Italie","Wi-Fi gratuit|Centre sportif|100%|Climatisation - Contrôle de la climatisation|Animaux|Occasions spéciales|Réunions|160 Chambres","False"
"285","NH Torino Centro","Europe","Italie","Turin"," C.so V. Emanuele, 104, 10121 Turin Italie","Wi-Fi gratuit|Parking|100%|Climatisation - Contrôle de la climatisation|Animaux|Accessibilité|Occasions spéciales|Réunions|182 Chambres","False"
"286","NH Torino Lingotto Congress","Europe","Italie","Turin"," Via Nizza, 262, 10126 Turin Italie","Parking|Centre sportif|Climatisation - Contrôle de la climatisation|Animaux|Accessibilité|Occasions spéciales|Réunions| Chambres","False"
"287","NH Torino Santo Stefano","Europe","Italie","Turin"," Via Porta Palatina, 19, 10122 Turin Italie","Wi-Fi gratuit|Parking|Climatisation - Contrôle de la climatisation|Eco-friendly|Animaux|Accessibilité|Baby-sitter|Occasions spéciales|Réunions|134 Chambres","True"
"288","NH Collection Venezia Grand Hotel Palazzo dei Dogi","Europe","Italie","Venise"," Fondamenta Madonna dell'Orto, 3500 30121 Venise Italie","Wi-Fi gratuit|Spa|100%|Climatisation - Contrôle de la climatisation|Animaux|Accessibilité|Occasions spéciales|Réunions|64 Chambres","False"
"289","NH Collection Venezia Murano Villa","Europe","Italie","Venise"," Fondamenta Andrea Navagero n.29, Murano 30141 Venise Venise Italie","Wi-Fi gratuit|Centre sportif|Spa|100%|Climatisation - Contrôle de la climatisation|Animaux|Accessibilité|Occasions spéciales|Réunions|104 Chambres","False"
"290","NH Venezia Laguna Palace","Europe","Italie","Venise"," Viale Ancona, 2, 30172 Venice Mestre Venise Italie","Wi-Fi gratuit|Parking|Centre sportif|100%|Climatisation - Contrôle de la climatisation|Eco-friendly|Animaux|Accessibilité|Occasions spéciales|Réunions|376 Chambres","True"
"291","NH Venezia Rio Novo","Europe","Italie","Venise"," Calle Larga Ragusei Dorsoduro 3489/E-C, 30123 Venise Italie","Wi-Fi gratuit|100%|Climatisation - Contrôle de la climatisation|Centre sportif|Eco-friendly|Animaux|Accessibilité|Occasions spéciales|Réunions|144 Chambres","True"
"292","NH Venezia Santa Lucia","Europe","Italie","Venise"," Rio Terà Lista di Spagna, 116/A 30121 Venise Italie","Wi-Fi gratuit|100%|Climatisation - Contrôle de la climatisation|Accessibilité|100 Chambres","False"
"293","NH Collection Palazzo Verona","Europe","Italie","Vérone"," Via Adua 6/8 37121 Vérone Vérone Italie","Wi-Fi gratuit|Parking|100%|Climatisation - Contrôle de la climatisation|Animaux|Accessibilité|Occasions spéciales|Réunions|70 Chambres","False"
"294","NH Bratislava Gate One","Europe","Slovaquie","Bratislava"," Ambrušova 7, 821 04 Bratislava Slovaquie","Parking|Centre sportif|Piscine|Spa|100%|Climatisation - Contrôle de la climatisation|Animaux|Occasions spéciales|Réunions|117 Chambres","False"
"295","NH Luxembourg","Europe","Luxembourg","Luxembourg"," 1, Route de Tréves,
 L-2633  Senningerberg Luxembourg Luxembourg","Wi-Fi gratuit|Parking|100%|Climatisation - Contrôle de la climatisation|Eco-friendly|Animaux|Accessibilité|Navette|Occasions spéciales|Réunions|149 Chambres","True"
"296","NH Amersfoort","Europe","Pays-Bas","Amersfoort"," Stationsstraat 75, 3811 MH Amersfoort Pays-Bas","Wi-Fi gratuit|Parking|100%|Climatisation - Contrôle de la climatisation|Eco-friendly|Animaux|Accessibilité|Occasions spéciales|Réunions|114 Chambres","True"
"297","NH Amsterdam Caransa","Europe","Pays-Bas","Amsterdam"," Rembrandtplein, 19, 1017 CT Amsterdam Pays-Bas","Wi-Fi gratuit|100%|Eco-friendly|Animaux|Navette|Occasions spéciales|Réunions|66 Chambres","True"
"298","NH Amsterdam Centre","Europe","Pays-Bas","Amsterdam"," Stadhouderskade, 7, 1054 ES Amsterdam Pays-Bas","Wi-Fi gratuit|Centre sportif|Spa|100%|Climatisation - Contrôle de la climatisation|Eco-friendly|Animaux|Accessibilité|Occasions spéciales|Réunions|237 Chambres","True"
"299","NH Amsterdam Museum Quarter","Europe","Pays-Bas","Amsterdam"," Hobbemakade, 50, 1071 XL Amsterdam Pays-Bas","Wi-Fi gratuit|Centre sportif|100%|Climatisation - Contrôle de la climatisation|Eco-friendly|Animaux|Accessibilité|Occasions spéciales|Réunions|163 Chambres","True"
"300","NH Amsterdam Noord","Europe","Pays-Bas","Amsterdam"," Distelkade, 21, 1031 XP Amsterdam Pays-Bas","Wi-Fi gratuit|Parking|Centre sportif|Climatisation - Contrôle de la climatisation|Eco-friendly|Animaux|Occasions spéciales|Réunions|290 Chambres","True"
"301","NH Amsterdam Schiller","Europe","Pays-Bas","Amsterdam"," Rembrandtplein 26, 1017 CV Amsterdam Pays-Bas","Wi-Fi gratuit|100%|Eco-friendly|Animaux|Navette|Occasions spéciales|Réunions|94 Chambres","True"
"302","NH Amsterdam Schiphol Airport","Europe","Pays-Bas","Amsterdam"," Kruisweg 495. Hoofddorp, 2132 NA Amsterdam Pays-Bas","Wi-Fi gratuit|Parking|Centre sportif|Navette|Piscine|100%|Climatisation - Contrôle de la climatisation|Eco-friendly|Animaux|Accessibilité|Occasions spéciales|Réunions|419 Chambres","True"
"303","NH Amsterdam Zuid","Europe","Pays-Bas","Amsterdam"," van Leijenberghlaan 221, 1082 GG Amsterdam Pays-Bas","Wi-Fi gratuit|Parking|Centre sportif|100%|Climatisation - Contrôle de la climatisation|Eco-friendly|Animaux|Accessibilité|Baby-sitter|Occasions spéciales|Réunions|213 Chambres","True"
"304","NH City Centre Amsterdam","Europe","Pays-Bas","Amsterdam"," Spuistraat, 288-292, 1012 VX Amsterdam Pays-Bas","Wi-Fi gratuit|100%|Climatisation - Contrôle de la climatisation|Eco-friendly|Animaux|Accessibilité|213 Chambres","True"
"305","NH Collection Amsterdam Barbizon Palace","Europe","Pays-Bas","Amsterdam"," Prins Hendrikkade, 59-72, 1012 AD Amsterdam Pays-Bas","Wi-Fi gratuit|Parking|Centre sportif|100%|Climatisation - Contrôle de la climatisation|Eco-friendly|Animaux|Accessibilité|Baby-sitter|Occasions spéciales|Réunions|274 Chambres","True"
"306","NH Collection Amsterdam Doelen","Europe","Pays-Bas","Amsterdam"," Nieuwe Doelenstraat, 26, 1012 CP Amsterdam Pays-Bas","Wi-Fi gratuit|Parking|100%|Eco-friendly|Animaux|81 Chambres","True"
"307","NH Collection Amsterdam Flower Market","Europe","Pays-Bas","Amsterdam"," Vijzelstraat 4, 1017 HK Amsterdam Pays-Bas","Wi-Fi gratuit|Parking|100%|Climatisation - Contrôle de la climatisation|Centre sportif|Eco-friendly|Animaux|Accessibilité|233 Chambres","True"
"308","NH Collection Amsterdam Grand Hotel Krasnapolsky","Europe","Pays-Bas","Amsterdam"," Dam 9, 1012 JS Amsterdam Pays-Bas","Wi-Fi gratuit|Parking|Climatisation - Contrôle de la climatisation|100%|Eco-friendly|Animaux|Accessibilité|Baby-sitter|Occasions spéciales|Réunions|451 Chambres","True"
"309","nhow Amsterdam RAI","Europe","Pays-Bas","Amsterdam"," Europaboulevard 2b 1078 RV Amsterdam Pays-Bas","Wi-Fi gratuit|Parking|Centre sportif|100%|Climatisation - Contrôle de la climatisation|Animaux|Accessibilité|Occasions spéciales|Réunions|650 Chambres","False"
"310","NH Arnhem Rijnhotel","Europe","Pays-Bas","Arnhem"," Onderlangs, 10, 6812 CG Arnhem Pays-Bas","Wi-Fi gratuit|Parking|100%|Eco-friendly|Animaux|Occasions spéciales|Réunions|68 Chambres","True"
"311","NH Bussum Jan Tabak","Europe","Pays-Bas","Bussum"," Amersfoortsestraatweg 27, 1401 CV Bussum Pays-Bas","Wi-Fi gratuit|Parking|100%|Climatisation - Contrôle de la climatisation|Eco-friendly|Animaux|Accessibilité|Occasions spéciales|Réunions|84 Chambres","True"
"312","NH Capelle","Europe","Pays-Bas","Capelle aan den IJssel"," Barbizonlaan 2, 2908 MA Capelle aan den IJssel Pays-Bas","Wi-Fi gratuit|Parking|100%|Climatisation - Contrôle de la climatisation|Eco-friendly|Animaux|Accessibilité|Occasions spéciales|Réunions|105 Chambres","True"
"313","NH Collection Eindhoven Centre","Europe","Pays-Bas","Eindhoven"," Vestdijk 5, 5611 CA Eindhoven Pays-Bas","Wi-Fi gratuit|Parking|Centre sportif|100%|Climatisation - Contrôle de la climatisation|Eco-friendly|Animaux|Accessibilité|Navette|Occasions spéciales|Réunions|132 Chambres","True"
"314","NH Eindhoven Conference Centre Koningshof","Europe","Pays-Bas","Eindhoven"," Locht 117, 5504 RM Veldhoven Eindhoven Pays-Bas","Wi-Fi gratuit|Parking|Centre sportif|Piscine|100%|Climatisation - Contrôle de la climatisation|Eco-friendly|Animaux|Accessibilité|Navette|Occasions spéciales|Réunions|509 Chambres","True"
"315","NH Groningen","Europe","Pays-Bas","Groningue"," Hanzeplein, 132, 9713 GW Groningue Pays-Bas","Wi-Fi gratuit|Parking|Centre sportif|100%|Climatisation - Contrôle de la climatisation|Eco-friendly|Animaux|Occasions spéciales|Réunions|127 Chambres","True"
"316","NH Groningen Hotel de Ville","Europe","Pays-Bas","Groningue"," Oude Boteringestraat 43 - 45, 9712 GD Groningue Pays-Bas","Wi-Fi gratuit|Parking|Eco-friendly|Animaux|Occasions spéciales|Réunions|66 Chambres","True"
"317","NH Atlantic Den Haag","Europe","Pays-Bas","La Haye"," Deltaplein 200, 2554 EJ La Haye Pays-Bas","Wi-Fi gratuit|Parking|Centre sportif|Piscine|100%|Eco-friendly|Animaux|Accessibilité|Occasions spéciales|Réunions|152 Chambres","True"
"318","NH Den Haag","Europe","Pays-Bas","La Haye"," Prinses Margrietplantsoen 100, 2595 BR La Haye Pays-Bas","Wi-Fi gratuit|Parking|Centre sportif|100%|Climatisation - Contrôle de la climatisation|Eco-friendly|Animaux|Occasions spéciales|Réunions|205 Chambres","True"
"319","NH Maastricht","Europe","Pays-Bas","Maastricht"," Forum, 110, 6229 GV Maastricht Pays-Bas","Wi-Fi gratuit|Parking|Centre sportif|Spa|Climatisation - Contrôle de la climatisation|Eco-friendly|Animaux|Accessibilité|Occasions spéciales|Réunions|275 Chambres","True"
"320","NH Naarden","Europe","Pays-Bas","Naarden"," IJsselmeerweg, 3, 1411 AA Naarden Pays-Bas","Wi-Fi gratuit|Parking|Centre sportif|100%|Climatisation - Contrôle de la climatisation|Eco-friendly|Animaux|Accessibilité|Occasions spéciales|Réunions|128 Chambres","True"
"321","NH Noordwijk Conference Centre Leeuwenhorst","Europe","Pays-Bas","Noordwijkerhout"," Langelaan, 3, 2211 XT Noordwijkerhout Pays-Bas","Wi-Fi gratuit|Parking|100%|Eco-friendly|Animaux|Accessibilité|Occasions spéciales|Réunions|513 Chambres","True"
"322","NH Veluwe Sparrenhorst","Europe","Pays-Bas","Nunspeet"," Eperweg 46, 8072 DB Nunspeet Pays-Bas","Wi-Fi gratuit|Parking|Centre sportif|Piscine|100%|Eco-friendly|Animaux|Accessibilité|Golf|Occasions spéciales|Réunions|117 Chambres","True"
"323","NH Atlanta Rotterdam","Europe","Pays-Bas","Rotterdam"," Coolsingel/Aert van Nesstraat, 4, 3012 CA Rotterdam Pays-Bas","Wi-Fi gratuit|Parking|Eco-friendly|Animaux|Accessibilité|Centre sportif|Occasions spéciales|Réunions|215 Chambres","True"
"324","nhow Rotterdam","Europe","Pays-Bas","Rotterdam"," Wilhelminakade 137, 3072 AP Rotterdam Pays-Bas","Wi-Fi gratuit|Parking|Centre sportif|100%|Climatisation - Contrôle de la climatisation|Eco-friendly|Animaux|Accessibilité|Occasions spéciales|Réunions|275 Chambres","True"
"325","NH Centre Utrecht","Europe","Pays-Bas","Utrecht"," Janskerkhof, 10, 3512 BL Utrecht Pays-Bas","Wi-Fi gratuit|Parking|100%|Climatisation - Contrôle de la climatisation|Eco-friendly|Animaux|47 Chambres","True"
"326","NH Utrecht","Europe","Pays-Bas","Utrecht"," Jaarbeursplein, 24, 3521 AR Utrecht Pays-Bas","Wi-Fi gratuit|Parking|Centre sportif|100%|Climatisation - Contrôle de la climatisation|Eco-friendly|Animaux|Accessibilité|Occasions spéciales|Réunions|276 Chambres","True"
"327","NH Waalwijk","Europe","Pays-Bas","Waalwijk"," Bevrijdingsweg 1, 5161 BZ Waalwijk Pays-Bas","Wi-Fi gratuit|Parking|100%|Eco-friendly|Animaux|Accessibilité|Occasions spéciales|Réunions|120 Chambres","True"
"328","NH Zandvoort","Europe","Pays-Bas","Zandvoort"," Burgemeester van Alphenstraat, 63, 2041 KG Zandvoort Pays-Bas","Wi-Fi gratuit|Parking|Spa|Climatisation - Contrôle de la climatisation|Eco-friendly|100%|Animaux|Accessibilité|Occasions spéciales|Réunions|216 Chambres","True"
"329","NH Zoetermeer","Europe","Pays-Bas","Zoetermeer"," Danny Kayelaan, 20, 2719 EH Zoetermeer Pays-Bas","Wi-Fi gratuit|Parking|Centre sportif|100%|Eco-friendly|Animaux|Accessibilité|Occasions spéciales|Réunions|104 Chambres","True"
"330","NH Poznan","Europe","Pologne","Poznan"," Sw. Marcin 67, 61-806 Poznan Pologne","Wi-Fi gratuit|Parking|Centre sportif|Spa|100%|Climatisation - Contrôle de la climatisation|Animaux|Occasions spéciales|Réunions|93 Chambres","False"
"331","Anantara Vilamoura Algarve Resort","Europe","Portugal","Algarve"," Av dos Descobrimentos nº 0, 
 8125-309 Algarve Portugal","Wi-Fi gratuit|Parking|Centre sportif|Piscine|Spa|Climatisation - Contrôle de la climatisation|Animaux|Accessibilité|Baby-sitter|Golf|Navette|Occasions spéciales|Réunions|243 Chambres","False"
"332","The Residences at Victoria Algarve","Europe","Portugal","Algarve"," Av. Dos Descobrimentos, 7 - Vilamoura 8125-309 Algarve Portugal","Wi-Fi gratuit|Centre sportif|Piscine|100%|Climatisation - Contrôle de la climatisation|Accessibilité|Golf|97 Chambres","False"
"333","Tivoli Carvoeiro Algarve Resort","Europe","Portugal","Algarve"," Apartado 1299 - Vale Covo - Praia do Carvoeiro - Lagoa 8401-911 Algarve Portugal","Wi-Fi gratuit|Parking|Centre sportif|Piscine|Spa|100%|Climatisation - Contrôle de la climatisation|Eco-friendly|Animaux|Accessibilité|Baby-sitter|Occasions spéciales|Réunions|248 Chambres","True"
"334","Tivoli Lagos Algarve Resort","Europe","Portugal","Algarve"," Rua António Crisógono dos Santos, Lagos 8600-678 Algarve Portugal","Wi-Fi gratuit|Parking|Centre sportif|Piscine|Spa|Climatisation - Contrôle de la climatisation|Animaux|Accessibilité|Baby-sitter|Navette|Occasions spéciales|Réunions|296 Chambres","False"
"335","Tivoli Marina Portimão Algarve Resort","Europe","Portugal","Algarve"," Marina Portimao - Portimão 8500-843 Algarve Portugal","Wi-Fi gratuit|Parking|Centre sportif|Piscine|100%|Climatisation - Contrôle de la climatisation|Accessibilité|Baby-sitter|Occasions spéciales|Navette|Réunions|196 Chambres","False"
"336","Tivoli Marina Vilamoura Algarve Resort","Europe","Portugal","Algarve"," Marina Vilamoura - Vilamoura 8125-901 Algarve Portugal","Wi-Fi gratuit|Parking|Centre sportif|Piscine|Spa|100%|Climatisation - Contrôle de la climatisation|Eco-friendly|Animaux|Accessibilité|Baby-sitter|Occasions spéciales|Réunions|383 Chambres","True"
"337","Tivoli Coimbra","Europe","Portugal","Coimbra"," Rua Joao Machado, 4/5 3000-226 Coimbra Portugal","Wi-Fi gratuit|Parking|100%|Climatisation - Contrôle de la climatisation|Animaux|Accessibilité|Occasions spéciales|Réunions|100 Chambres","False"
"338","Avani Avenida Liberdade Lisbon","Europe","Portugal","Lisbonne"," Rua Júlio César Machado, 9 1250-135 Lisbonne Portugal","Wi-Fi gratuit|Parking|Centre sportif|Piscine|100%|Climatisation - Contrôle de la climatisation|Animaux|Accessibilité|Baby-sitter|Navette|Occasions spéciales|Réunions|119 Chambres","False"
"339","NH Collection Lisboa Liberdade","Europe","Portugal","Lisbonne"," Avda. da Liberdade, 180 B, 1250-146 Lisbonne Portugal","Wi-Fi gratuit|Parking|Piscine|100%|Climatisation - Contrôle de la climatisation|Animaux|Baby-sitter|Occasions spéciales|Réunions|83 Chambres","False"
"340","NH Lisboa Campo Grande","Europe","Portugal","Lisbonne"," Campo Grande, 7, 1700-087 Lisbonne Portugal","Wi-Fi gratuit|Parking|Centre sportif|100%|Climatisation - Contrôle de la climatisation|Animaux|Accessibilité|Occasions spéciales|Réunions|88 Chambres","False"
"341","Tivoli Avenida Liberdade Lisboa","Europe","Portugal","Lisbonne"," Avenida da Liberdade, 185 1269-050 Lisbonne Portugal","Wi-Fi gratuit|Parking|Centre sportif|Piscine|Spa|100%|Climatisation - Contrôle de la climatisation|Animaux|Accessibilité|Baby-sitter|Navette|Occasions spéciales|Réunions|285 Chambres","False"
"342","Tivoli Oriente Lisboa","Europe","Portugal","Lisbonne"," Avenida D. João II 27 - Parque das Nações 1990-079 Lisbonne Portugal","Wi-Fi gratuit|Parking|Centre sportif|Piscine|100%|Climatisation - Contrôle de la climatisation|Eco-friendly|Animaux|Accessibilité|Baby-sitter|Occasions spéciales|Réunions|279 Chambres","True"
"343","NH Collection Porto Batalha","Europe","Portugal","Porto"," Praca da Batalha, 60-65, 4000-101 Porto Portugal","Wi-Fi gratuit|Parking|Centre sportif|Piscine|Spa|100%|Climatisation - Contrôle de la climatisation|Animaux|Accessibilité|Baby-sitter|Occasions spéciales|Réunions|107 Chambres","False"
"344","NH Porto Jardim","Europe","Portugal","Porto"," R. Duque de Loulé, 66 4000-324 Porto Portugal","Wi-Fi gratuit|Parking|Centre sportif|Piscine|100%|Climatisation - Contrôle de la climatisation|Animaux|Accessibilité|Occasions spéciales|Réunions|79 Chambres","False"
"345","Tivoli Palácio de Seteais","Europe","Portugal","Sintra"," Rua Barbosa du Bocage, 8 2710-517 Sintra Portugal","Wi-Fi gratuit|Parking|Piscine|Spa|100%|Climatisation - Contrôle de la climatisation|Baby-sitter|Navette|Occasions spéciales|Réunions|30 Chambres","False"
"346","Tivoli Sintra","Europe","Portugal","Sintra"," Praça da Republica 2710-616 Sintra Portugal","Wi-Fi gratuit|Parking|100%|Climatisation - Contrôle de la climatisation|Eco-friendly|Animaux|Accessibilité|Baby-sitter|Occasions spéciales|Réunions|77 Chambres","True"
"347","NH Collection Olomouc Congress","Europe","République Tchèque","Olomouc"," Legionárská 21, 779 00 Olomouc République Tchèque","Wi-Fi gratuit|Parking|Centre sportif|Piscine|Spa|100%|Climatisation - Contrôle de la climatisation|Animaux|Accessibilité|Golf|Occasions spéciales|Réunions|137 Chambres","False"
"348","NH Collection Prague","Europe","République Tchèque","Prague"," U Mrázovky 1566, 15000 Prague République Tchèque","Wi-Fi gratuit|Parking|Centre sportif|Piscine|Spa|100%|Climatisation - Contrôle de la climatisation|Animaux|Accessibilité|Baby-sitter|Occasions spéciales|Réunions|136 Chambres","False"
"349","NH Collection Prague Carlo IV","Europe","République Tchèque","Prague"," Senovážné náměstí 13/991
 11000 Prague République Tchèque","Wi-Fi gratuit|Centre sportif|Spa|100%|Climatisation - Contrôle de la climatisation|Animaux|Accessibilité|Occasions spéciales|Réunions|152 Chambres","False"
"350","NH Prague City","Europe","République Tchèque","Prague"," Mozartova 261/1, 15000 Prague République Tchèque","Wi-Fi gratuit|Parking|Centre sportif|100%|Climatisation - Contrôle de la climatisation|Animaux|Accessibilité|Baby-sitter|Occasions spéciales|Réunions|408 Chambres","False"
"351","NH Bucharest","Europe","Roumanie","Bucarest"," Bulevardul Mircea Vodă  Nr. 21,  Bucarest Roumanie","Wi-Fi gratuit|Parking|100%|Climatisation - Contrôle de la climatisation|Animaux|Accessibilité|Occasions spéciales|Réunions|76 Chambres","False"
"352","NH Timisoara","Europe","Roumanie","Timisoara"," Strada Pestalozzi 1/a, 300115 Timisoara Roumanie","Wi-Fi gratuit|Parking|Centre sportif|Spa|100%|Climatisation - Contrôle de la climatisation|Animaux|Accessibilité|Occasions spéciales|83 Chambres|Réunions","False"
"353","NH London Kensington","Europe","Royaume-Uni","Londres"," Cromwell Road 202-220, SW5 0SW Londres Royaume-Uni","Wi-Fi gratuit|Parking|100%|Climatisation - Contrôle de la climatisation|Eco-friendly|Animaux|Accessibilité|Occasions spéciales|Réunions|121 Chambres","True"
"354","nhow London","Europe","Royaume-Uni","Londres"," Macclesfield road 2 EC1V 8DG Londres Royaume-Uni","Wi-Fi gratuit|Parking|Centre sportif|100%|Climatisation - Contrôle de la climatisation|Eco-friendly|Animaux|Accessibilité|Baby-sitter|Occasions spéciales|Réunions|190 Chambres","True"
"355","NH Geneva Airport","Europe","Suisse","Genève"," Av. De Mategnin, 21, 1217 Meyrin 1 Genève Suisse","Wi-Fi gratuit|Parking|Centre sportif|Navette|100%|Climatisation - Contrôle de la climatisation|Eco-friendly|Animaux|Accessibilité|Occasions spéciales|Réunions|190 Chambres","True"
"356","NH Geneva City","Europe","Suisse","Genève"," Avenue Wendt 42-44, 1203 Genève Suisse","Wi-Fi gratuit|100%|Climatisation - Contrôle de la climatisation|Animaux|70 Chambres|Réunions","False"
"357","The Vyra Suites NH Collection Doha","Médio Oriente","Qatar","Doha"," Zone 61, Street 833, Umm Awaard,   Doha Qatar","Wi-Fi gratuit|Centre sportif|Climatisation - Contrôle de la climatisation|Accessibilité|Occasions spéciales|Réunions|228 Chambres","False"
